<?xml version="1.0" encoding="UTF-8"?><kml xmlns="http://www.opengis.net/kml/2.2"><Document><name>Barranco</name><Style id="walking-route"><LineStyle><color>ff326bb8</color><width>5</width></LineStyle></Style><Placemark><name>Universidad de Ingenieria y Tecnologia</name><Point><coordinates>-77.0221296,-12.1351351,0</coordinates></Point></Placemark><Placemark><name>Museo de Arte Contemporaneo de Lima</name><Point><coordinates>-77.0232736,-12.1367297,0</coordinates></Point></Placemark><Placemark><name>utec-campus-barranco → mac-lima-parque-espejo-de-agua</name><styleUrl>#walking-route</styleUrl><ExtendedData><Data name="road_distance_m"><value>406</value></Data></ExtendedData><LineString><tessellate>1</tessellate><altitudeMode>clampToGround</altitudeMode><coordinates>-77.02228,-12.134929,0 -77.022317,-12.134955,0 -77.022539,-12.13514,0 -77.022648,-12.135283,0 -77.022677,-12.135381,0 -77.022688,-12.135464,0 -77.022693,-12.135546,0 -77.0227,-12.135546,0 -77.0227,-12.135558,0 -77.022735,-12.135557,0 -77.02278,-12.135556,0 -77.022843,-12.135358,0 -77.022803,-12.135343,0 -77.022836,-12.135246,0 -77.023181,-12.13541,0 -77.023181,-12.135539,0 -77.023138,-12.135548,0 -77.023149,-12.135623,0 -77.023159,-12.135648,0 -77.023191,-12.135723,0 -77.023198,-12.135739,0 -77.023256,-12.135819,0 -77.023312,-12.135875,0 -77.023438,-12.135956,0 -77.023537,-12.135999,0 -77.023898,-12.136079,0 -77.023891,-12.136097,0 -77.023883,-12.136121,0 -77.023851,-12.136151,0 -77.02382,-12.136226,0 -77.023797,-12.13631,0 -77.023751,-12.136409,0 -77.02371,-12.136487,0 -77.023662,-12.13654,0 -77.023569,-12.136604,0 -77.023493,-12.136658,0 -77.023439,-12.136632,0 -77.023366,-12.136602,0 -77.023352,-12.136631,0 -77.023352,-12.136631,0</coordinates></LineString></Placemark></Document></kml>
