<?xml version="1.0" encoding="UTF-8"?><kml xmlns="http://www.opengis.net/kml/2.2"><Document><name>Barranco</name><Style id="walking-route"><LineStyle><color>ff326bb8</color><width>5</width></LineStyle></Style><Placemark><name>Mirador Catalina Recavarren</name><Point><coordinates>-77.0235738,-12.1496829,0</coordinates></Point></Placemark><Placemark><name>Pasaje La Ermita</name><Point><coordinates>-77.0229075,-12.1491933,0</coordinates></Point></Placemark><Placemark><name>Puente de Los Suspiros</name><Point><coordinates>-77.022591,-12.1491664,0</coordinates></Point></Placemark><Placemark><name>Iglesia Santísima Cruz</name><Point><coordinates>-77.0216208,-12.1487936,0</coordinates></Point></Placemark><Placemark><name>Parque Municipal de Barranco</name><Point><coordinates>-77.0211974,-12.1494807,0</coordinates></Point></Placemark><Placemark><name>Biblioteca Municipal</name><Point><coordinates>-77.0214626,-12.1501191,0</coordinates></Point></Placemark><Placemark><name>Museo de La Electricidad</name><Point><coordinates>-77.0217254,-12.1504015,0</coordinates></Point></Placemark><Placemark><name>Museo Pedro de Osma</name><Point><coordinates>-77.0226424,-12.1546379,0</coordinates></Point></Placemark><Placemark><name>mirador-catalina-recavarren → la-ermita-de-barranco</name><styleUrl>#walking-route</styleUrl><ExtendedData><Data name="road_distance_m"><value>92.8</value></Data></ExtendedData><LineString><tessellate>1</tessellate><altitudeMode>clampToGround</altitudeMode><coordinates>-77.023555,-12.149671,0 -77.023551,-12.149677,0 -77.023543,-12.149684,0 -77.023533,-12.149687,0 -77.023522,-12.149687,0 -77.023512,-12.149683,0 -77.023504,-12.149676,0 -77.023499,-12.149667,0 -77.023497,-12.149657,0 -77.023499,-12.149647,0 -77.023458,-12.149639,0 -77.023431,-12.149634,0 -77.023408,-12.149627,0 -77.023358,-12.149586,0 -77.023196,-12.149449,0 -77.023067,-12.149329,0 -77.022908,-12.149193,0</coordinates></LineString></Placemark><Placemark><name>la-ermita-de-barranco → puente-de-los-suspiros-bajada-de-banos</name><styleUrl>#walking-route</styleUrl><ExtendedData><Data name="road_distance_m"><value>44.2</value></Data></ExtendedData><LineString><tessellate>1</tessellate><altitudeMode>clampToGround</altitudeMode><coordinates>-77.022908,-12.149193,0 -77.022863,-12.149155,0 -77.022762,-12.149067,0 -77.022749,-12.149056,0 -77.022696,-12.149103,0 -77.022595,-12.149172,0</coordinates></LineString></Placemark><Placemark><name>puente-de-los-suspiros-bajada-de-banos → iglesia-santisima-cruz</name><styleUrl>#walking-route</styleUrl><ExtendedData><Data name="road_distance_m"><value>201.3</value></Data></ExtendedData><LineString><tessellate>1</tessellate><altitudeMode>clampToGround</altitudeMode><coordinates>-77.022595,-12.149172,0 -77.022492,-12.149242,0 -77.022456,-12.149262,0 -77.022318,-12.149327,0 -77.02222,-12.149362,0 -77.021625,-12.149535,0 -77.021615,-12.149485,0 -77.021582,-12.149433,0 -77.02156,-12.149377,0 -77.021545,-12.1493,0 -77.021541,-12.14925,0 -77.021592,-12.149224,0 -77.021634,-12.149201,0 -77.021687,-12.149136,0 -77.021699,-12.149105,0 -77.021787,-12.148848,0</coordinates></LineString></Placemark><Placemark><name>iglesia-santisima-cruz → parque-municipal-y-entorno-civico</name><styleUrl>#walking-route</styleUrl><ExtendedData><Data name="road_distance_m"><value>110.4</value></Data></ExtendedData><LineString><tessellate>1</tessellate><altitudeMode>clampToGround</altitudeMode><coordinates>-77.021787,-12.148848,0 -77.021699,-12.149105,0 -77.021687,-12.149136,0 -77.021634,-12.149201,0 -77.021592,-12.149224,0 -77.021541,-12.14925,0 -77.021523,-12.149244,0 -77.021479,-12.149371,0 -77.021494,-12.149424,0 -77.021403,-12.149486,0 -77.021224,-12.149415,0</coordinates></LineString></Placemark><Placemark><name>parque-municipal-y-entorno-civico → biblioteca-municipal-de-barranco</name><styleUrl>#walking-route</styleUrl><ExtendedData><Data name="road_distance_m"><value>96</value></Data></ExtendedData><LineString><tessellate>1</tessellate><altitudeMode>clampToGround</altitudeMode><coordinates>-77.021224,-12.149415,0 -77.021403,-12.149486,0 -77.021478,-12.149584,0 -77.021459,-12.149592,0 -77.021413,-12.149707,0 -77.021334,-12.149904,0 -77.021522,-12.149979,0</coordinates></LineString></Placemark><Placemark><name>biblioteca-municipal-de-barranco → museo-de-la-electricidad-tranvia</name><styleUrl>#walking-route</styleUrl><ExtendedData><Data name="road_distance_m"><value>62.1</value></Data></ExtendedData><LineString><tessellate>1</tessellate><altitudeMode>clampToGround</altitudeMode><coordinates>-77.021522,-12.149979,0 -77.02167,-12.150039,0 -77.0218,-12.150091,0 -77.021896,-12.150339,0</coordinates></LineString></Placemark><Placemark><name>museo-de-la-electricidad-tranvia → museo-pedro-de-osma-y-av-pedro-de-osma</name><styleUrl>#walking-route</styleUrl><ExtendedData><Data name="road_distance_m"><value>585.4</value></Data></ExtendedData><LineString><tessellate>1</tessellate><altitudeMode>clampToGround</altitudeMode><coordinates>-77.021896,-12.150339,0 -77.022208,-12.151145,0 -77.022258,-12.151166,0 -77.02265,-12.151337,0 -77.022566,-12.151875,0 -77.022558,-12.151923,0 -77.022561,-12.151965,0 -77.022571,-12.152015,0 -77.022826,-12.152739,0 -77.023069,-12.153419,0 -77.02324,-12.153878,0 -77.02326,-12.15395,0 -77.023275,-12.154021,0 -77.023283,-12.154077,0 -77.023288,-12.154143,0 -77.023262,-12.154134,0 -77.023227,-12.154125,0 -77.023142,-12.154113,0 -77.023142,-12.154127,0 -77.02314,-12.154148,0 -77.023137,-12.154173,0 -77.023132,-12.154196,0 -77.023126,-12.154234,0 -77.022945,-12.154763,0 -77.022903,-12.154751,0 -77.02276,-12.154695,0 -77.02276,-12.154695,0</coordinates></LineString></Placemark></Document></kml>
