{
  "type": "FeatureCollection",
  "features": [
    {
      "type": "Feature",
      "properties": {
        "id": "mirador-catalina-recavarren",
        "name": "Mirador Catalina Recavarren",
        "district": "Barranco"
      },
      "geometry": {
        "type": "Point",
        "coordinates": [
          -77.0235738,
          -12.1496829
        ]
      }
    },
    {
      "type": "Feature",
      "properties": {
        "id": "la-ermita-de-barranco",
        "name": "Pasaje La Ermita",
        "district": "Barranco"
      },
      "geometry": {
        "type": "Point",
        "coordinates": [
          -77.0229075,
          -12.1491933
        ]
      }
    },
    {
      "type": "Feature",
      "properties": {
        "id": "puente-de-los-suspiros-bajada-de-banos",
        "name": "Puente de Los Suspiros",
        "district": "Barranco"
      },
      "geometry": {
        "type": "Point",
        "coordinates": [
          -77.022591,
          -12.1491664
        ]
      }
    },
    {
      "type": "Feature",
      "properties": {
        "id": "iglesia-santisima-cruz",
        "name": "Iglesia Santísima Cruz",
        "district": "Barranco"
      },
      "geometry": {
        "type": "Point",
        "coordinates": [
          -77.0216208,
          -12.1487936
        ]
      }
    },
    {
      "type": "Feature",
      "properties": {
        "id": "parque-municipal-y-entorno-civico",
        "name": "Parque Municipal de Barranco",
        "district": "Barranco"
      },
      "geometry": {
        "type": "Point",
        "coordinates": [
          -77.0211974,
          -12.1494807
        ]
      }
    },
    {
      "type": "Feature",
      "properties": {
        "id": "biblioteca-municipal-de-barranco",
        "name": "Biblioteca Municipal",
        "district": "Barranco"
      },
      "geometry": {
        "type": "Point",
        "coordinates": [
          -77.0214626,
          -12.1501191
        ]
      }
    },
    {
      "type": "Feature",
      "properties": {
        "id": "museo-de-la-electricidad-tranvia",
        "name": "Museo de La Electricidad",
        "district": "Barranco"
      },
      "geometry": {
        "type": "Point",
        "coordinates": [
          -77.0217254,
          -12.1504015
        ]
      }
    },
    {
      "type": "Feature",
      "properties": {
        "id": "museo-pedro-de-osma-y-av-pedro-de-osma",
        "name": "Museo Pedro de Osma",
        "district": "Barranco"
      },
      "geometry": {
        "type": "Point",
        "coordinates": [
          -77.0226424,
          -12.1546379
        ]
      }
    },
    {
      "type": "Feature",
      "properties": {
        "from": "mirador-catalina-recavarren",
        "to": "la-ermita-de-barranco",
        "road_distance_m": 92.8,
        "source_retrieved_at": "2026-08-31T14:46:28.010657+00:00"
      },
      "geometry": {
        "coordinates": [
          [
            -77.023555,
            -12.149671
          ],
          [
            -77.023551,
            -12.149677
          ],
          [
            -77.023543,
            -12.149684
          ],
          [
            -77.023533,
            -12.149687
          ],
          [
            -77.023522,
            -12.149687
          ],
          [
            -77.023512,
            -12.149683
          ],
          [
            -77.023504,
            -12.149676
          ],
          [
            -77.023499,
            -12.149667
          ],
          [
            -77.023497,
            -12.149657
          ],
          [
            -77.023499,
            -12.149647
          ],
          [
            -77.023458,
            -12.149639
          ],
          [
            -77.023431,
            -12.149634
          ],
          [
            -77.023408,
            -12.149627
          ],
          [
            -77.023358,
            -12.149586
          ],
          [
            -77.023196,
            -12.149449
          ],
          [
            -77.023067,
            -12.149329
          ],
          [
            -77.022908,
            -12.149193
          ]
        ],
        "type": "LineString"
      }
    },
    {
      "type": "Feature",
      "properties": {
        "from": "la-ermita-de-barranco",
        "to": "puente-de-los-suspiros-bajada-de-banos",
        "road_distance_m": 44.2,
        "source_retrieved_at": "2026-08-31T14:46:28.010657+00:00"
      },
      "geometry": {
        "coordinates": [
          [
            -77.022908,
            -12.149193
          ],
          [
            -77.022863,
            -12.149155
          ],
          [
            -77.022762,
            -12.149067
          ],
          [
            -77.022749,
            -12.149056
          ],
          [
            -77.022696,
            -12.149103
          ],
          [
            -77.022595,
            -12.149172
          ]
        ],
        "type": "LineString"
      }
    },
    {
      "type": "Feature",
      "properties": {
        "from": "puente-de-los-suspiros-bajada-de-banos",
        "to": "iglesia-santisima-cruz",
        "road_distance_m": 201.3,
        "source_retrieved_at": "2026-08-31T14:46:28.010657+00:00"
      },
      "geometry": {
        "coordinates": [
          [
            -77.022595,
            -12.149172
          ],
          [
            -77.022492,
            -12.149242
          ],
          [
            -77.022456,
            -12.149262
          ],
          [
            -77.022318,
            -12.149327
          ],
          [
            -77.02222,
            -12.149362
          ],
          [
            -77.021625,
            -12.149535
          ],
          [
            -77.021615,
            -12.149485
          ],
          [
            -77.021582,
            -12.149433
          ],
          [
            -77.02156,
            -12.149377
          ],
          [
            -77.021545,
            -12.1493
          ],
          [
            -77.021541,
            -12.14925
          ],
          [
            -77.021592,
            -12.149224
          ],
          [
            -77.021634,
            -12.149201
          ],
          [
            -77.021687,
            -12.149136
          ],
          [
            -77.021699,
            -12.149105
          ],
          [
            -77.021787,
            -12.148848
          ]
        ],
        "type": "LineString"
      }
    },
    {
      "type": "Feature",
      "properties": {
        "from": "iglesia-santisima-cruz",
        "to": "parque-municipal-y-entorno-civico",
        "road_distance_m": 110.4,
        "source_retrieved_at": "2026-08-31T14:46:28.010657+00:00"
      },
      "geometry": {
        "coordinates": [
          [
            -77.021787,
            -12.148848
          ],
          [
            -77.021699,
            -12.149105
          ],
          [
            -77.021687,
            -12.149136
          ],
          [
            -77.021634,
            -12.149201
          ],
          [
            -77.021592,
            -12.149224
          ],
          [
            -77.021541,
            -12.14925
          ],
          [
            -77.021523,
            -12.149244
          ],
          [
            -77.021479,
            -12.149371
          ],
          [
            -77.021494,
            -12.149424
          ],
          [
            -77.021403,
            -12.149486
          ],
          [
            -77.021224,
            -12.149415
          ]
        ],
        "type": "LineString"
      }
    },
    {
      "type": "Feature",
      "properties": {
        "from": "parque-municipal-y-entorno-civico",
        "to": "biblioteca-municipal-de-barranco",
        "road_distance_m": 96,
        "source_retrieved_at": "2026-08-31T14:46:28.010657+00:00"
      },
      "geometry": {
        "coordinates": [
          [
            -77.021224,
            -12.149415
          ],
          [
            -77.021403,
            -12.149486
          ],
          [
            -77.021478,
            -12.149584
          ],
          [
            -77.021459,
            -12.149592
          ],
          [
            -77.021413,
            -12.149707
          ],
          [
            -77.021334,
            -12.149904
          ],
          [
            -77.021522,
            -12.149979
          ]
        ],
        "type": "LineString"
      }
    },
    {
      "type": "Feature",
      "properties": {
        "from": "biblioteca-municipal-de-barranco",
        "to": "museo-de-la-electricidad-tranvia",
        "road_distance_m": 62.1,
        "source_retrieved_at": "2026-08-31T14:46:28.010657+00:00"
      },
      "geometry": {
        "coordinates": [
          [
            -77.021522,
            -12.149979
          ],
          [
            -77.02167,
            -12.150039
          ],
          [
            -77.0218,
            -12.150091
          ],
          [
            -77.021896,
            -12.150339
          ]
        ],
        "type": "LineString"
      }
    },
    {
      "type": "Feature",
      "properties": {
        "from": "museo-de-la-electricidad-tranvia",
        "to": "museo-pedro-de-osma-y-av-pedro-de-osma",
        "road_distance_m": 585.4,
        "source_retrieved_at": "2026-08-31T14:46:28.010657+00:00"
      },
      "geometry": {
        "coordinates": [
          [
            -77.021896,
            -12.150339
          ],
          [
            -77.022208,
            -12.151145
          ],
          [
            -77.022258,
            -12.151166
          ],
          [
            -77.02265,
            -12.151337
          ],
          [
            -77.022566,
            -12.151875
          ],
          [
            -77.022558,
            -12.151923
          ],
          [
            -77.022561,
            -12.151965
          ],
          [
            -77.022571,
            -12.152015
          ],
          [
            -77.022826,
            -12.152739
          ],
          [
            -77.023069,
            -12.153419
          ],
          [
            -77.02324,
            -12.153878
          ],
          [
            -77.02326,
            -12.15395
          ],
          [
            -77.023275,
            -12.154021
          ],
          [
            -77.023283,
            -12.154077
          ],
          [
            -77.023288,
            -12.154143
          ],
          [
            -77.023262,
            -12.154134
          ],
          [
            -77.023227,
            -12.154125
          ],
          [
            -77.023142,
            -12.154113
          ],
          [
            -77.023142,
            -12.154127
          ],
          [
            -77.02314,
            -12.154148
          ],
          [
            -77.023137,
            -12.154173
          ],
          [
            -77.023132,
            -12.154196
          ],
          [
            -77.023126,
            -12.154234
          ],
          [
            -77.022945,
            -12.154763
          ],
          [
            -77.022903,
            -12.154751
          ],
          [
            -77.02276,
            -12.154695
          ],
          [
            -77.02276,
            -12.154695
          ]
        ],
        "type": "LineString"
      }
    }
  ]
}
