{
  "type": "FeatureCollection",
  "features": [
    {
      "type": "Feature",
      "properties": {
        "id": "iglesia-santisima-cruz",
        "name": "Iglesia Santísima Cruz",
        "district": "Barranco"
      },
      "geometry": {
        "type": "Point",
        "coordinates": [
          -77.0216208,
          -12.1487936
        ]
      }
    },
    {
      "type": "Feature",
      "properties": {
        "id": "biblioteca-municipal-de-barranco",
        "name": "Biblioteca Municipal",
        "district": "Barranco"
      },
      "geometry": {
        "type": "Point",
        "coordinates": [
          -77.0214626,
          -12.1501191
        ]
      }
    },
    {
      "type": "Feature",
      "properties": {
        "id": "la-ermita-de-barranco",
        "name": "Pasaje La Ermita",
        "district": "Barranco"
      },
      "geometry": {
        "type": "Point",
        "coordinates": [
          -77.0229075,
          -12.1491933
        ]
      }
    },
    {
      "type": "Feature",
      "properties": {
        "id": "mirador-catalina-recavarren",
        "name": "Mirador Catalina Recavarren",
        "district": "Barranco"
      },
      "geometry": {
        "type": "Point",
        "coordinates": [
          -77.0235738,
          -12.1496829
        ]
      }
    }
  ]
}
