{
  "type": "FeatureCollection",
  "features": [
    {
      "type": "Feature",
      "properties": {
        "id": "lugar-de-la-memoria-lum",
        "name": "Lugar de la Memoria",
        "district": "Miraflores"
      },
      "geometry": {
        "type": "Point",
        "coordinates": [
          -77.0536918,
          -12.1100511
        ]
      }
    },
    {
      "type": "Feature",
      "properties": {
        "id": "parque-maria-reiche",
        "name": "Parque María Reiche",
        "district": "Miraflores"
      },
      "geometry": {
        "type": "Point",
        "coordinates": [
          -77.0493238,
          -12.1147278
        ]
      }
    }
  ]
}
