{
  "type": "FeatureCollection",
  "features": [
    {
      "type": "Feature",
      "properties": {
        "id": "casa-raul-porras-barrenechea",
        "name": "Instituto Raúl Porras Barrenechea",
        "district": "Miraflores"
      },
      "geometry": {
        "type": "Point",
        "coordinates": [
          -77.026981,
          -12.118414
        ]
      }
    },
    {
      "type": "Feature",
      "properties": {
        "id": "casa-museo-ricardo-palma",
        "name": "Casa Museo Ricardo Palma",
        "district": "Miraflores"
      },
      "geometry": {
        "type": "Point",
        "coordinates": [
          -77.0276037,
          -12.1184154
        ]
      }
    },
    {
      "type": "Feature",
      "properties": {
        "id": "ovalo-de-miraflores",
        "name": "Óvalo de Miraflores",
        "district": "Miraflores"
      },
      "geometry": {
        "type": "Point",
        "coordinates": [
          -77.0288947,
          -12.1190866
        ]
      }
    },
    {
      "type": "Feature",
      "properties": {
        "id": "centro-cultural-ccori-wasi",
        "name": "Centro Cultural CCORI WASI",
        "district": "Miraflores"
      },
      "geometry": {
        "type": "Point",
        "coordinates": [
          -77.0295256,
          -12.1175413
        ]
      }
    },
    {
      "type": "Feature",
      "properties": {
        "from": "casa-raul-porras-barrenechea",
        "to": "casa-museo-ricardo-palma",
        "road_distance_m": 67.8,
        "source_retrieved_at": "2026-08-31T14:46:28.010657+00:00"
      },
      "geometry": {
        "coordinates": [
          [
            -77.02698,
            -12.118288
          ],
          [
            -77.027433,
            -12.118286
          ],
          [
            -77.027603,
            -12.118285
          ]
        ],
        "type": "LineString"
      }
    },
    {
      "type": "Feature",
      "properties": {
        "from": "casa-museo-ricardo-palma",
        "to": "ovalo-de-miraflores",
        "road_distance_m": 223.9,
        "source_retrieved_at": "2026-08-31T14:46:28.010657+00:00"
      },
      "geometry": {
        "coordinates": [
          [
            -77.027603,
            -12.118285
          ],
          [
            -77.028044,
            -12.118282
          ],
          [
            -77.02809,
            -12.118282
          ],
          [
            -77.028184,
            -12.118282
          ],
          [
            -77.028192,
            -12.119002
          ],
          [
            -77.028193,
            -12.119043
          ],
          [
            -77.028728,
            -12.119037
          ],
          [
            -77.028895,
            -12.119036
          ]
        ],
        "type": "LineString"
      }
    },
    {
      "type": "Feature",
      "properties": {
        "from": "ovalo-de-miraflores",
        "to": "centro-cultural-ccori-wasi",
        "road_distance_m": 229.5,
        "source_retrieved_at": "2026-08-31T14:46:28.010657+00:00"
      },
      "geometry": {
        "coordinates": [
          [
            -77.028895,
            -12.119036
          ],
          [
            -77.028728,
            -12.119037
          ],
          [
            -77.028743,
            -12.118985
          ],
          [
            -77.028776,
            -12.118984
          ],
          [
            -77.028837,
            -12.118956
          ],
          [
            -77.028866,
            -12.118765
          ],
          [
            -77.028927,
            -12.118774
          ],
          [
            -77.028971,
            -12.118784
          ],
          [
            -77.029012,
            -12.118795
          ],
          [
            -77.029139,
            -12.118045
          ],
          [
            -77.029154,
            -12.117957
          ],
          [
            -77.029155,
            -12.117955
          ],
          [
            -77.029176,
            -12.117824
          ],
          [
            -77.029229,
            -12.117864
          ],
          [
            -77.029254,
            -12.117719
          ],
          [
            -77.029292,
            -12.117502
          ]
        ],
        "type": "LineString"
      }
    }
  ]
}
