<?xml version="1.0" encoding="UTF-8"?><kml xmlns="http://www.opengis.net/kml/2.2"><Document><name>Miraflores</name><Style id="walking-route"><LineStyle><color>ff326bb8</color><width>5</width></LineStyle></Style><Placemark><name>Lugar de la Memoria</name><Point><coordinates>-77.0536918,-12.1100511,0</coordinates></Point></Placemark><Placemark><name>Parque María Reiche</name><Point><coordinates>-77.0493238,-12.1147278,0</coordinates></Point></Placemark><Placemark><name>lugar-de-la-memoria-lum → parque-maria-reiche</name><styleUrl>#walking-route</styleUrl><ExtendedData><Data name="road_distance_m"><value>994.6</value></Data></ExtendedData><LineString><tessellate>1</tessellate><altitudeMode>clampToGround</altitudeMode><coordinates>-77.053733,-12.109773,0 -77.053733,-12.109773,0 -77.053697,-12.109764,0 -77.053664,-12.109756,0 -77.053642,-12.109748,0 -77.053579,-12.109725,0 -77.053523,-12.109699,0 -77.053483,-12.109678,0 -77.053438,-12.109648,0 -77.053379,-12.109611,0 -77.053351,-12.109575,0 -77.053321,-12.109531,0 -77.053292,-12.10948,0 -77.05324,-12.109385,0 -77.053194,-12.109309,0 -77.053141,-12.109212,0 -77.053099,-12.109137,0 -77.053075,-12.109111,0 -77.053027,-12.109084,0 -77.052976,-12.109075,0 -77.052929,-12.109073,0 -77.052854,-12.109075,0 -77.052836,-12.10907,0 -77.052778,-12.109096,0 -77.052743,-12.10912,0 -77.052628,-12.109231,0 -77.052455,-12.109404,0 -77.052292,-12.109574,0 -77.052101,-12.109764,0 -77.051986,-12.109888,0 -77.051808,-12.110079,0 -77.051628,-12.110267,0 -77.051598,-12.110342,0 -77.051593,-12.110431,0 -77.0516,-12.110542,0 -77.051619,-12.11086,0 -77.051647,-12.111294,0 -77.05165,-12.111423,0 -77.051655,-12.111498,0 -77.051658,-12.111546,0 -77.051656,-12.111563,0 -77.051631,-12.111619,0 -77.051594,-12.111676,0 -77.051551,-12.111732,0 -77.051489,-12.111783,0 -77.051406,-12.111827,0 -77.051239,-12.111892,0 -77.050893,-12.112012,0 -77.050819,-12.112042,0 -77.050769,-12.112068,0 -77.050749,-12.11208,0 -77.050681,-12.112136,0 -77.050059,-12.112784,0 -77.049972,-12.112858,0 -77.04986,-12.112918,0 -77.049713,-12.112976,0 -77.049661,-12.113008,0 -77.049601,-12.113069,0 -77.049329,-12.113369,0 -77.049235,-12.1135,0 -77.049213,-12.113545,0 -77.049167,-12.113671,0 -77.049147,-12.113794,0 -77.049124,-12.1144,0 -77.049116,-12.11461,0 -77.049149,-12.114884,0 -77.049334,-12.11474,0</coordinates></LineString></Placemark></Document></kml>
