{
  "type": "FeatureCollection",
  "features": [
    {
      "type": "Feature",
      "properties": {
        "id": "faro-la-marina-parque-antonio-raimondi",
        "name": "Faro La Marina",
        "district": "Miraflores"
      },
      "geometry": {
        "type": "Point",
        "coordinates": [
          -77.040152,
          -12.1236743
        ]
      }
    },
    {
      "type": "Feature",
      "properties": {
        "id": "parque-del-amor-el-beso",
        "name": "Parque Alberto Andrade Carmona",
        "district": "Miraflores"
      },
      "geometry": {
        "type": "Point",
        "coordinates": [
          -77.0365127,
          -12.1267365
        ]
      }
    },
    {
      "type": "Feature",
      "properties": {
        "id": "puente-villena-bajada-balta-costa-verde",
        "name": "Ciclovía Puente Villena Rey",
        "district": "Miraflores"
      },
      "geometry": {
        "type": "Point",
        "coordinates": [
          -77.0357271,
          -12.1274808
        ]
      }
    },
    {
      "type": "Feature",
      "properties": {
        "id": "larcomar-acantilado",
        "name": "Larcomar",
        "district": "Miraflores"
      },
      "geometry": {
        "type": "Point",
        "coordinates": [
          -77.0302263,
          -12.1322184
        ]
      }
    },
    {
      "type": "Feature",
      "properties": {
        "id": "reducto-2-casa-museo-caceres",
        "name": "Reducto",
        "district": "Miraflores"
      },
      "geometry": {
        "type": "Point",
        "coordinates": [
          -77.0319172,
          -12.1300445
        ]
      }
    },
    {
      "type": "Feature",
      "properties": {
        "id": "calle-porta-y-casonas-frente-a-verticalizacion",
        "name": "Calle Porta",
        "district": "Miraflores"
      },
      "geometry": {
        "type": "Point",
        "coordinates": [
          -77.0328783,
          -12.1270431
        ]
      }
    },
    {
      "type": "Feature",
      "properties": {
        "id": "parque-kennedy-gatos-civic-core",
        "name": "Parque John F. Kennedy",
        "district": "Miraflores"
      },
      "geometry": {
        "type": "Point",
        "coordinates": [
          -77.0304221,
          -12.1217806
        ]
      }
    },
    {
      "type": "Feature",
      "properties": {
        "id": "palacio-municipal-virgen-milagrosa",
        "name": "Municipalidad de Miraflores",
        "district": "Miraflores"
      },
      "geometry": {
        "type": "Point",
        "coordinates": [
          -77.0292108,
          -12.1217599
        ]
      }
    },
    {
      "type": "Feature",
      "properties": {
        "from": "faro-la-marina-parque-antonio-raimondi",
        "to": "parque-del-amor-el-beso",
        "road_distance_m": 645.4,
        "source_retrieved_at": "2026-08-31T14:46:28.010657+00:00"
      },
      "geometry": {
        "coordinates": [
          [
            -77.040155,
            -12.123768
          ],
          [
            -77.040171,
            -12.123768
          ],
          [
            -77.040203,
            -12.123756
          ],
          [
            -77.040229,
            -12.123734
          ],
          [
            -77.040268,
            -12.123839
          ],
          [
            -77.040214,
            -12.123852
          ],
          [
            -77.040134,
            -12.12387
          ],
          [
            -77.040065,
            -12.123863
          ],
          [
            -77.039984,
            -12.123846
          ],
          [
            -77.039892,
            -12.123793
          ],
          [
            -77.039836,
            -12.123774
          ],
          [
            -77.039769,
            -12.123759
          ],
          [
            -77.039697,
            -12.123749
          ],
          [
            -77.03963,
            -12.123753
          ],
          [
            -77.039575,
            -12.123764
          ],
          [
            -77.039557,
            -12.123774
          ],
          [
            -77.039508,
            -12.123801
          ],
          [
            -77.039465,
            -12.12383
          ],
          [
            -77.039399,
            -12.123875
          ],
          [
            -77.039368,
            -12.123899
          ],
          [
            -77.039336,
            -12.123928
          ],
          [
            -77.03931,
            -12.123958
          ],
          [
            -77.039283,
            -12.123999
          ],
          [
            -77.039185,
            -12.124134
          ],
          [
            -77.039149,
            -12.124185
          ],
          [
            -77.039084,
            -12.124242
          ],
          [
            -77.039001,
            -12.1243
          ],
          [
            -77.038933,
            -12.124333
          ],
          [
            -77.038891,
            -12.124349
          ],
          [
            -77.038854,
            -12.124356
          ],
          [
            -77.038757,
            -12.124372
          ],
          [
            -77.038699,
            -12.124387
          ],
          [
            -77.038669,
            -12.124393
          ],
          [
            -77.038636,
            -12.124395
          ],
          [
            -77.038599,
            -12.124392
          ],
          [
            -77.038573,
            -12.124398
          ],
          [
            -77.038541,
            -12.124405
          ],
          [
            -77.038508,
            -12.124424
          ],
          [
            -77.038458,
            -12.124462
          ],
          [
            -77.038398,
            -12.124532
          ],
          [
            -77.03836,
            -12.124574
          ],
          [
            -77.038339,
            -12.124597
          ],
          [
            -77.038202,
            -12.124844
          ],
          [
            -77.038182,
            -12.124881
          ],
          [
            -77.038162,
            -12.124927
          ],
          [
            -77.03813,
            -12.125011
          ],
          [
            -77.038108,
            -12.125092
          ],
          [
            -77.038102,
            -12.12516
          ],
          [
            -77.038105,
            -12.125213
          ],
          [
            -77.038119,
            -12.125267
          ],
          [
            -77.038125,
            -12.125303
          ],
          [
            -77.038117,
            -12.125343
          ],
          [
            -77.0381,
            -12.125385
          ],
          [
            -77.038057,
            -12.125464
          ],
          [
            -77.038023,
            -12.125508
          ],
          [
            -77.037964,
            -12.125551
          ],
          [
            -77.037911,
            -12.125576
          ],
          [
            -77.037818,
            -12.125602
          ],
          [
            -77.037713,
            -12.125601
          ],
          [
            -77.037638,
            -12.125595
          ],
          [
            -77.037567,
            -12.125592
          ],
          [
            -77.037509,
            -12.125594
          ],
          [
            -77.037446,
            -12.125615
          ],
          [
            -77.037389,
            -12.125645
          ],
          [
            -77.037347,
            -12.125675
          ],
          [
            -77.03731,
            -12.125708
          ],
          [
            -77.037278,
            -12.125745
          ],
          [
            -77.037251,
            -12.125787
          ],
          [
            -77.037224,
            -12.125843
          ],
          [
            -77.037196,
            -12.125901
          ],
          [
            -77.037165,
            -12.125943
          ],
          [
            -77.037115,
            -12.125974
          ],
          [
            -77.037065,
            -12.125988
          ],
          [
            -77.037017,
            -12.125995
          ],
          [
            -77.036981,
            -12.126012
          ],
          [
            -77.036933,
            -12.126053
          ],
          [
            -77.036779,
            -12.126183
          ],
          [
            -77.03671,
            -12.126273
          ],
          [
            -77.03665,
            -12.126237
          ],
          [
            -77.036569,
            -12.126354
          ],
          [
            -77.03632,
            -12.126673
          ],
          [
            -77.036454,
            -12.126798
          ]
        ],
        "type": "LineString"
      }
    },
    {
      "type": "Feature",
      "properties": {
        "from": "parque-del-amor-el-beso",
        "to": "puente-villena-bajada-balta-costa-verde",
        "road_distance_m": 244.9,
        "source_retrieved_at": "2026-08-31T14:46:28.010657+00:00"
      },
      "geometry": {
        "coordinates": [
          [
            -77.036454,
            -12.126798
          ],
          [
            -77.03632,
            -12.126673
          ],
          [
            -77.036031,
            -12.127063
          ],
          [
            -77.036015,
            -12.127081
          ],
          [
            -77.035479,
            -12.127904
          ],
          [
            -77.035471,
            -12.12792
          ],
          [
            -77.035451,
            -12.127911
          ],
          [
            -77.035462,
            -12.127896
          ],
          [
            -77.035727,
            -12.127481
          ]
        ],
        "type": "LineString"
      }
    },
    {
      "type": "Feature",
      "properties": {
        "from": "puente-villena-bajada-balta-costa-verde",
        "to": "larcomar-acantilado",
        "road_distance_m": 854.2,
        "source_retrieved_at": "2026-08-31T14:46:28.010657+00:00"
      },
      "geometry": {
        "coordinates": [
          [
            -77.035727,
            -12.127481
          ],
          [
            -77.035462,
            -12.127896
          ],
          [
            -77.035451,
            -12.127911
          ],
          [
            -77.035471,
            -12.12792
          ],
          [
            -77.035441,
            -12.127964
          ],
          [
            -77.035426,
            -12.127989
          ],
          [
            -77.035315,
            -12.128188
          ],
          [
            -77.035097,
            -12.128544
          ],
          [
            -77.034964,
            -12.128768
          ],
          [
            -77.034869,
            -12.128941
          ],
          [
            -77.034682,
            -12.129232
          ],
          [
            -77.034615,
            -12.129342
          ],
          [
            -77.034409,
            -12.129679
          ],
          [
            -77.034336,
            -12.129791
          ],
          [
            -77.034318,
            -12.12981
          ],
          [
            -77.034174,
            -12.129961
          ],
          [
            -77.034002,
            -12.130078
          ],
          [
            -77.033831,
            -12.130142
          ],
          [
            -77.033655,
            -12.130169
          ],
          [
            -77.033462,
            -12.1302
          ],
          [
            -77.033401,
            -12.130197
          ],
          [
            -77.033297,
            -12.130226
          ],
          [
            -77.033173,
            -12.130282
          ],
          [
            -77.033148,
            -12.130294
          ],
          [
            -77.032962,
            -12.130417
          ],
          [
            -77.032888,
            -12.130417
          ],
          [
            -77.032836,
            -12.130511
          ],
          [
            -77.032769,
            -12.130574
          ],
          [
            -77.032667,
            -12.130646
          ],
          [
            -77.032575,
            -12.130674
          ],
          [
            -77.032494,
            -12.130708
          ],
          [
            -77.032442,
            -12.130751
          ],
          [
            -77.032398,
            -12.130802
          ],
          [
            -77.032349,
            -12.130876
          ],
          [
            -77.032288,
            -12.130949
          ],
          [
            -77.032191,
            -12.13101
          ],
          [
            -77.032098,
            -12.131054
          ],
          [
            -77.031941,
            -12.131095
          ],
          [
            -77.031813,
            -12.131106
          ],
          [
            -77.031736,
            -12.131093
          ],
          [
            -77.031662,
            -12.131075
          ],
          [
            -77.031611,
            -12.131057
          ],
          [
            -77.031587,
            -12.13105
          ],
          [
            -77.031533,
            -12.131034
          ],
          [
            -77.031492,
            -12.13105
          ],
          [
            -77.03141,
            -12.131068
          ],
          [
            -77.031347,
            -12.131085
          ],
          [
            -77.031322,
            -12.131096
          ],
          [
            -77.031287,
            -12.131109
          ],
          [
            -77.031205,
            -12.131168
          ],
          [
            -77.031127,
            -12.131232
          ],
          [
            -77.031117,
            -12.131245
          ],
          [
            -77.031099,
            -12.131305
          ],
          [
            -77.031013,
            -12.131338
          ],
          [
            -77.030968,
            -12.131373
          ],
          [
            -77.030929,
            -12.131408
          ],
          [
            -77.030852,
            -12.131479
          ],
          [
            -77.030742,
            -12.131553
          ],
          [
            -77.030658,
            -12.13161
          ],
          [
            -77.0304,
            -12.131818
          ],
          [
            -77.030176,
            -12.132018
          ],
          [
            -77.03013,
            -12.13206
          ],
          [
            -77.030099,
            -12.13209
          ]
        ],
        "type": "LineString"
      }
    },
    {
      "type": "Feature",
      "properties": {
        "from": "larcomar-acantilado",
        "to": "reducto-2-casa-museo-caceres",
        "road_distance_m": 354.1,
        "source_retrieved_at": "2026-08-31T14:46:28.010657+00:00"
      },
      "geometry": {
        "coordinates": [
          [
            -77.030099,
            -12.13209
          ],
          [
            -77.03013,
            -12.13206
          ],
          [
            -77.030176,
            -12.132018
          ],
          [
            -77.030026,
            -12.13181
          ],
          [
            -77.030175,
            -12.131672
          ],
          [
            -77.03023,
            -12.131594
          ],
          [
            -77.030158,
            -12.131461
          ],
          [
            -77.030141,
            -12.131442
          ],
          [
            -77.030118,
            -12.131415
          ],
          [
            -77.030168,
            -12.131375
          ],
          [
            -77.030508,
            -12.131101
          ],
          [
            -77.030589,
            -12.131035
          ],
          [
            -77.030639,
            -12.130995
          ],
          [
            -77.030749,
            -12.130931
          ],
          [
            -77.030869,
            -12.130878
          ],
          [
            -77.030963,
            -12.13085
          ],
          [
            -77.031029,
            -12.130839
          ],
          [
            -77.031065,
            -12.130841
          ],
          [
            -77.031183,
            -12.130782
          ],
          [
            -77.031251,
            -12.130734
          ],
          [
            -77.031302,
            -12.130667
          ],
          [
            -77.031319,
            -12.130608
          ],
          [
            -77.031381,
            -12.130473
          ],
          [
            -77.031443,
            -12.130368
          ],
          [
            -77.031512,
            -12.130281
          ],
          [
            -77.031563,
            -12.130222
          ],
          [
            -77.031641,
            -12.130147
          ],
          [
            -77.031733,
            -12.130094
          ],
          [
            -77.031865,
            -12.130034
          ],
          [
            -77.031912,
            -12.130023
          ]
        ],
        "type": "LineString"
      }
    },
    {
      "type": "Feature",
      "properties": {
        "from": "reducto-2-casa-museo-caceres",
        "to": "calle-porta-y-casonas-frente-a-verticalizacion",
        "road_distance_m": 479.4,
        "source_retrieved_at": "2026-08-31T14:46:28.010657+00:00"
      },
      "geometry": {
        "coordinates": [
          [
            -77.031912,
            -12.130023
          ],
          [
            -77.031865,
            -12.130034
          ],
          [
            -77.03174,
            -12.129597
          ],
          [
            -77.03159,
            -12.129073
          ],
          [
            -77.031291,
            -12.12808
          ],
          [
            -77.032445,
            -12.127656
          ],
          [
            -77.033036,
            -12.127428
          ],
          [
            -77.032878,
            -12.127043
          ]
        ],
        "type": "LineString"
      }
    },
    {
      "type": "Feature",
      "properties": {
        "from": "calle-porta-y-casonas-frente-a-verticalizacion",
        "to": "parque-kennedy-gatos-civic-core",
        "road_distance_m": 709.4,
        "source_retrieved_at": "2026-08-31T14:46:28.010657+00:00"
      },
      "geometry": {
        "coordinates": [
          [
            -77.032878,
            -12.127043
          ],
          [
            -77.032753,
            -12.126738
          ],
          [
            -77.032728,
            -12.126676
          ],
          [
            -77.032706,
            -12.126624
          ],
          [
            -77.032678,
            -12.126555
          ],
          [
            -77.0324,
            -12.125874
          ],
          [
            -77.032344,
            -12.125741
          ],
          [
            -77.032063,
            -12.125047
          ],
          [
            -77.032042,
            -12.124995
          ],
          [
            -77.032026,
            -12.124953
          ],
          [
            -77.032023,
            -12.124945
          ],
          [
            -77.032003,
            -12.124901
          ],
          [
            -77.031715,
            -12.124245
          ],
          [
            -77.03171,
            -12.124234
          ],
          [
            -77.031705,
            -12.124223
          ],
          [
            -77.031667,
            -12.124136
          ],
          [
            -77.03165,
            -12.124095
          ],
          [
            -77.031334,
            -12.123397
          ],
          [
            -77.031158,
            -12.122988
          ],
          [
            -77.031011,
            -12.123038
          ],
          [
            -77.030918,
            -12.123018
          ],
          [
            -77.030835,
            -12.122991
          ],
          [
            -77.030728,
            -12.12292
          ],
          [
            -77.030657,
            -12.12276
          ],
          [
            -77.030643,
            -12.122707
          ],
          [
            -77.030442,
            -12.122752
          ],
          [
            -77.030427,
            -12.122677
          ],
          [
            -77.030452,
            -12.122616
          ],
          [
            -77.030451,
            -12.122607
          ],
          [
            -77.030429,
            -12.122421
          ],
          [
            -77.030457,
            -12.122392
          ],
          [
            -77.030503,
            -12.122345
          ],
          [
            -77.030637,
            -12.122116
          ],
          [
            -77.030579,
            -12.122067
          ],
          [
            -77.030527,
            -12.122014
          ],
          [
            -77.03048,
            -12.121943
          ],
          [
            -77.030453,
            -12.121869
          ],
          [
            -77.030412,
            -12.121779
          ],
          [
            -77.030418,
            -12.121775
          ]
        ],
        "type": "LineString"
      }
    },
    {
      "type": "Feature",
      "properties": {
        "from": "parque-kennedy-gatos-civic-core",
        "to": "palacio-municipal-virgen-milagrosa",
        "road_distance_m": 197.5,
        "source_retrieved_at": "2026-08-31T14:46:28.010657+00:00"
      },
      "geometry": {
        "coordinates": [
          [
            -77.030418,
            -12.121775
          ],
          [
            -77.030412,
            -12.121779
          ],
          [
            -77.030406,
            -12.121782
          ],
          [
            -77.030378,
            -12.12179
          ],
          [
            -77.030345,
            -12.12179
          ],
          [
            -77.030338,
            -12.121788
          ],
          [
            -77.030287,
            -12.121947
          ],
          [
            -77.030217,
            -12.12198
          ],
          [
            -77.030194,
            -12.122013
          ],
          [
            -77.030135,
            -12.122032
          ],
          [
            -77.030119,
            -12.122037
          ],
          [
            -77.029761,
            -12.122152
          ],
          [
            -77.029712,
            -12.122062
          ],
          [
            -77.029571,
            -12.121803
          ],
          [
            -77.029435,
            -12.121552
          ],
          [
            -77.029418,
            -12.12156
          ],
          [
            -77.029172,
            -12.121687
          ]
        ],
        "type": "LineString"
      }
    }
  ]
}
