{
  "type": "FeatureCollection",
  "features": [
    {
      "type": "Feature",
      "properties": {
        "id": "lugar-de-la-memoria-lum",
        "name": "Lugar de la Memoria",
        "district": "Miraflores"
      },
      "geometry": {
        "type": "Point",
        "coordinates": [
          -77.0536918,
          -12.1100511
        ]
      }
    },
    {
      "type": "Feature",
      "properties": {
        "id": "parque-maria-reiche",
        "name": "Parque María Reiche",
        "district": "Miraflores"
      },
      "geometry": {
        "type": "Point",
        "coordinates": [
          -77.0493238,
          -12.1147278
        ]
      }
    },
    {
      "type": "Feature",
      "properties": {
        "from": "lugar-de-la-memoria-lum",
        "to": "parque-maria-reiche",
        "road_distance_m": 994.6,
        "source_retrieved_at": "2026-08-31T14:46:28.010657+00:00"
      },
      "geometry": {
        "coordinates": [
          [
            -77.053733,
            -12.109773
          ],
          [
            -77.053733,
            -12.109773
          ],
          [
            -77.053697,
            -12.109764
          ],
          [
            -77.053664,
            -12.109756
          ],
          [
            -77.053642,
            -12.109748
          ],
          [
            -77.053579,
            -12.109725
          ],
          [
            -77.053523,
            -12.109699
          ],
          [
            -77.053483,
            -12.109678
          ],
          [
            -77.053438,
            -12.109648
          ],
          [
            -77.053379,
            -12.109611
          ],
          [
            -77.053351,
            -12.109575
          ],
          [
            -77.053321,
            -12.109531
          ],
          [
            -77.053292,
            -12.10948
          ],
          [
            -77.05324,
            -12.109385
          ],
          [
            -77.053194,
            -12.109309
          ],
          [
            -77.053141,
            -12.109212
          ],
          [
            -77.053099,
            -12.109137
          ],
          [
            -77.053075,
            -12.109111
          ],
          [
            -77.053027,
            -12.109084
          ],
          [
            -77.052976,
            -12.109075
          ],
          [
            -77.052929,
            -12.109073
          ],
          [
            -77.052854,
            -12.109075
          ],
          [
            -77.052836,
            -12.10907
          ],
          [
            -77.052778,
            -12.109096
          ],
          [
            -77.052743,
            -12.10912
          ],
          [
            -77.052628,
            -12.109231
          ],
          [
            -77.052455,
            -12.109404
          ],
          [
            -77.052292,
            -12.109574
          ],
          [
            -77.052101,
            -12.109764
          ],
          [
            -77.051986,
            -12.109888
          ],
          [
            -77.051808,
            -12.110079
          ],
          [
            -77.051628,
            -12.110267
          ],
          [
            -77.051598,
            -12.110342
          ],
          [
            -77.051593,
            -12.110431
          ],
          [
            -77.0516,
            -12.110542
          ],
          [
            -77.051619,
            -12.11086
          ],
          [
            -77.051647,
            -12.111294
          ],
          [
            -77.05165,
            -12.111423
          ],
          [
            -77.051655,
            -12.111498
          ],
          [
            -77.051658,
            -12.111546
          ],
          [
            -77.051656,
            -12.111563
          ],
          [
            -77.051631,
            -12.111619
          ],
          [
            -77.051594,
            -12.111676
          ],
          [
            -77.051551,
            -12.111732
          ],
          [
            -77.051489,
            -12.111783
          ],
          [
            -77.051406,
            -12.111827
          ],
          [
            -77.051239,
            -12.111892
          ],
          [
            -77.050893,
            -12.112012
          ],
          [
            -77.050819,
            -12.112042
          ],
          [
            -77.050769,
            -12.112068
          ],
          [
            -77.050749,
            -12.11208
          ],
          [
            -77.050681,
            -12.112136
          ],
          [
            -77.050059,
            -12.112784
          ],
          [
            -77.049972,
            -12.112858
          ],
          [
            -77.04986,
            -12.112918
          ],
          [
            -77.049713,
            -12.112976
          ],
          [
            -77.049661,
            -12.113008
          ],
          [
            -77.049601,
            -12.113069
          ],
          [
            -77.049329,
            -12.113369
          ],
          [
            -77.049235,
            -12.1135
          ],
          [
            -77.049213,
            -12.113545
          ],
          [
            -77.049167,
            -12.113671
          ],
          [
            -77.049147,
            -12.113794
          ],
          [
            -77.049124,
            -12.1144
          ],
          [
            -77.049116,
            -12.11461
          ],
          [
            -77.049149,
            -12.114884
          ],
          [
            -77.049334,
            -12.11474
          ]
        ],
        "type": "LineString"
      }
    }
  ]
}
