<?xml version="1.0" encoding="UTF-8"?><kml xmlns="http://www.opengis.net/kml/2.2"><Document><name>Miraflores</name><Placemark><name>Parque Las Tradiciones</name><Point><coordinates>-77.0213252,-12.1217046,0</coordinates></Point></Placemark><Placemark><name>Instituto Raúl Porras Barrenechea</name><Point><coordinates>-77.026981,-12.118414,0</coordinates></Point></Placemark><Placemark><name>Casa Museo Ricardo Palma</name><Point><coordinates>-77.0276037,-12.1184154,0</coordinates></Point></Placemark><Placemark><name>Óvalo de Miraflores</name><Point><coordinates>-77.0288947,-12.1190866,0</coordinates></Point></Placemark><Placemark><name>Centro Cultural CCORI WASI</name><Point><coordinates>-77.0295256,-12.1175413,0</coordinates></Point></Placemark></Document></kml>
