{
  "type": "FeatureCollection",
  "features": [
    {
      "type": "Feature",
      "properties": {
        "id": "parque-3-de-octubre-skatepark-muros-libres",
        "name": "Parque 3 de octubre",
        "district": "Pueblo Libre"
      },
      "geometry": {
        "type": "Point",
        "coordinates": [
          -77.0600562,
          -12.0785729
        ]
      }
    },
    {
      "type": "Feature",
      "properties": {
        "id": "quinta-de-los-libertadores-mnaahp",
        "name": "Museo Nacional de Arqueología",
        "district": "Pueblo Libre"
      },
      "geometry": {
        "type": "Point",
        "coordinates": [
          -77.0622797,
          -12.0773665
        ]
      }
    },
    {
      "type": "Feature",
      "properties": {
        "id": "antigua-taberna-queirolo",
        "name": "Antigua Taberna Queirolo",
        "district": "Pueblo Libre"
      },
      "geometry": {
        "type": "Point",
        "coordinates": [
          -77.0630716,
          -12.0775934
        ]
      }
    },
    {
      "type": "Feature",
      "properties": {
        "id": "parque-virginia-candamo",
        "name": "Parque Candamo",
        "district": "Pueblo Libre"
      },
      "geometry": {
        "type": "Point",
        "coordinates": [
          -77.0634772,
          -12.0740945
        ]
      }
    },
    {
      "type": "Feature",
      "properties": {
        "id": "plaza-a-la-bandera",
        "name": "Plaza de la Bandera",
        "district": "Pueblo Libre"
      },
      "geometry": {
        "type": "Point",
        "coordinates": [
          -77.0607729,
          -12.0680591
        ]
      }
    }
  ]
}
