<?xml version="1.0" encoding="UTF-8"?><kml xmlns="http://www.opengis.net/kml/2.2"><Document><name>Pueblo Libre</name><Style id="walking-route"><LineStyle><color>ff326bb8</color><width>5</width></LineStyle></Style><Placemark><name>Parque de las Américas</name><Point><coordinates>-77.0678766,-12.0706736,0</coordinates></Point></Placemark><Placemark><name>Museo Larco</name><Point><coordinates>-77.0709002,-12.0727847,0</coordinates></Point></Placemark><Placemark><name>Huaca Julio C. Tello</name><Point><coordinates>-77.07205,-12.0684338,0</coordinates></Point></Placemark><Placemark><name>parque-de-las-americas → museo-larco-jardines</name><styleUrl>#walking-route</styleUrl><ExtendedData><Data name="road_distance_m"><value>875.2</value></Data></ExtendedData><LineString><tessellate>1</tessellate><altitudeMode>clampToGround</altitudeMode><coordinates>-77.067875,-12.070668,0 -77.067878,-12.070667,0 -77.06791,-12.070659,0 -77.067943,-12.070656,0 -77.067972,-12.070657,0 -77.067977,-12.070658,0 -77.068009,-12.070665,0 -77.06804,-12.070677,0 -77.068069,-12.070694,0 -77.068094,-12.070715,0 -77.068116,-12.07074,0 -77.068116,-12.070643,0 -77.067968,-12.070229,0 -77.068169,-12.069983,0 -77.068415,-12.069743,0 -77.068407,-12.069594,0 -77.068484,-12.0696,0 -77.068527,-12.0696,0 -77.068531,-12.069544,0 -77.069111,-12.069561,0 -77.069103,-12.069867,0 -77.069106,-12.069993,0 -77.069111,-12.070068,0 -77.069118,-12.070134,0 -77.069151,-12.070267,0 -77.069188,-12.070418,0 -77.069272,-12.070727,0 -77.069319,-12.070711,0 -77.06979,-12.070635,0 -77.069993,-12.071473,0 -77.070061,-12.07177,0 -77.070109,-12.071978,0 -77.070166,-12.071967,0 -77.070175,-12.072011,0 -77.070194,-12.072103,0 -77.070215,-12.072224,0 -77.070408,-12.072187,0 -77.071049,-12.072052,0 -77.071144,-12.072477,0 -77.0712,-12.072761,0 -77.071187,-12.072763,0 -77.071159,-12.072767,0 -77.07112,-12.072548,0 -77.071113,-12.072536,0 -77.071096,-12.07253,0 -77.071085,-12.072533,0 -77.071058,-12.07254,0 -77.070829,-12.0726,0 -77.070835,-12.072626,0 -77.070835,-12.072626,0</coordinates></LineString></Placemark><Placemark><name>museo-larco-jardines → huaca-julio-c-tello</name><styleUrl>#walking-route</styleUrl><ExtendedData><Data name="road_distance_m"><value>779.6</value></Data></ExtendedData><LineString><tessellate>1</tessellate><altitudeMode>clampToGround</altitudeMode><coordinates>-77.070835,-12.072626,0 -77.070829,-12.0726,0 -77.071058,-12.07254,0 -77.071085,-12.072533,0 -77.071096,-12.07253,0 -77.071113,-12.072536,0 -77.07112,-12.072548,0 -77.071159,-12.072767,0 -77.071187,-12.072763,0 -77.0712,-12.072761,0 -77.071262,-12.072755,0 -77.071311,-12.07275,0 -77.071248,-12.0725,0 -77.071237,-12.072454,0 -77.071232,-12.072435,0 -77.071259,-12.072429,0 -77.071531,-12.072364,0 -77.071626,-12.072343,0 -77.071802,-12.072304,0 -77.072087,-12.072235,0 -77.072333,-12.072177,0 -77.072241,-12.071772,0 -77.072298,-12.071749,0 -77.072359,-12.071736,0 -77.072367,-12.071723,0 -77.072424,-12.071707,0 -77.072418,-12.071669,0 -77.072419,-12.071651,0 -77.072398,-12.071543,0 -77.072483,-12.071524,0 -77.072469,-12.071469,0 -77.072408,-12.071247,0 -77.072337,-12.070918,0 -77.072825,-12.070814,0 -77.072744,-12.070449,0 -77.072604,-12.06985,0 -77.072493,-12.068887,0 -77.072411,-12.068285,0 -77.072042,-12.068311,0 -77.072042,-12.068311,0</coordinates></LineString></Placemark></Document></kml>
