{
  "type": "FeatureCollection",
  "features": [
    {
      "type": "Feature",
      "properties": {
        "id": "torres-de-limatambo-supermanzana",
        "name": "Conjunto Residencial Las Torres de Limatambo",
        "district": "San Borja"
      },
      "geometry": {
        "type": "Point",
        "coordinates": [
          -77.0045741,
          -12.109026
        ]
      }
    },
    {
      "type": "Feature",
      "properties": {
        "id": "coliseo-eduardo-dibos",
        "name": "Coliseo Eduardo Dibós",
        "district": "San Borja"
      },
      "geometry": {
        "type": "Point",
        "coordinates": [
          -77.0011657,
          -12.1109128
        ]
      }
    },
    {
      "type": "Feature",
      "properties": {
        "from": "torres-de-limatambo-supermanzana",
        "to": "coliseo-eduardo-dibos",
        "road_distance_m": 742.2,
        "source_retrieved_at": "2026-09-03T00:26:22.093162+00:00"
      },
      "geometry": {
        "coordinates": [
          [
            -77.004584,
            -12.109038
          ],
          [
            -77.004832,
            -12.108849
          ],
          [
            -77.00481,
            -12.108819
          ],
          [
            -77.00461,
            -12.108967
          ],
          [
            -77.004473,
            -12.109073
          ],
          [
            -77.004036,
            -12.109426
          ],
          [
            -77.00407,
            -12.109468
          ],
          [
            -77.0037,
            -12.109768
          ],
          [
            -77.003696,
            -12.109782
          ],
          [
            -77.003694,
            -12.109796
          ],
          [
            -77.003651,
            -12.10983
          ],
          [
            -77.003612,
            -12.109861
          ],
          [
            -77.003597,
            -12.109846
          ],
          [
            -77.003357,
            -12.110037
          ],
          [
            -77.003339,
            -12.110051
          ],
          [
            -77.003316,
            -12.110069
          ],
          [
            -77.003098,
            -12.110242
          ],
          [
            -77.003079,
            -12.110257
          ],
          [
            -77.003061,
            -12.110272
          ],
          [
            -77.002819,
            -12.110464
          ],
          [
            -77.002772,
            -12.110494
          ],
          [
            -77.002735,
            -12.110519
          ],
          [
            -77.00255,
            -12.110671
          ],
          [
            -77.00254,
            -12.110685
          ],
          [
            -77.002485,
            -12.111193
          ],
          [
            -77.002468,
            -12.111365
          ],
          [
            -77.002444,
            -12.111388
          ],
          [
            -77.00239,
            -12.111394
          ],
          [
            -77.002385,
            -12.111422
          ],
          [
            -77.002378,
            -12.111481
          ],
          [
            -77.002353,
            -12.111727
          ],
          [
            -77.002047,
            -12.111704
          ],
          [
            -77.001644,
            -12.11168
          ],
          [
            -77.001591,
            -12.111676
          ],
          [
            -77.001528,
            -12.111671
          ],
          [
            -77.001452,
            -12.111666
          ],
          [
            -77.001179,
            -12.111607
          ],
          [
            -77.001002,
            -12.111576
          ],
          [
            -77.000931,
            -12.11155
          ],
          [
            -77.000851,
            -12.111511
          ],
          [
            -77.000751,
            -12.111455
          ],
          [
            -77.000739,
            -12.111443
          ],
          [
            -77.000738,
            -12.111372
          ],
          [
            -77.00098,
            -12.111129
          ],
          [
            -77.001008,
            -12.111101
          ],
          [
            -77.001052,
            -12.111131
          ],
          [
            -77.001138,
            -12.111154
          ],
          [
            -77.001183,
            -12.111151
          ]
        ],
        "type": "LineString"
      }
    }
  ]
}
