<?xml version="1.0" encoding="UTF-8"?><kml xmlns="http://www.opengis.net/kml/2.2"><Document><name>San Isidro</name><Placemark><name>Huaca Santa Cruz</name><Point><coordinates>-77.048338,-12.104444,0</coordinates></Point></Placemark><Placemark><name>Hotel Country Club</name><Point><coordinates>-77.0490204,-12.0979669,0</coordinates></Point></Placemark><Placemark><name>Huaca Huallamarca</name><Point><coordinates>-77.040492,-12.0974038,0</coordinates></Point></Placemark><Placemark><name>Calle José Choquehuanca</name><Point><coordinates>-77.0403007,-12.0981264,0</coordinates></Point></Placemark><Placemark><name>Casa Museo Marina Núñez del Prado</name><Point><coordinates>-77.03397,-12.100988,0</coordinates></Point></Placemark><Placemark><name>Municipalidad de San Isidro</name><Point><coordinates>-77.0273922,-12.0977364,0</coordinates></Point></Placemark><Placemark><name>Viettel Perú</name><Point><coordinates>-77.0193865,-12.0978883,0</coordinates></Point></Placemark></Document></kml>
