<?xml version="1.0" encoding="UTF-8"?><kml xmlns="http://www.opengis.net/kml/2.2"><Document><name>San Isidro</name><Style id="walking-route"><LineStyle><color>ff326bb8</color><width>5</width></LineStyle></Style><Placemark><name>Casa Museo Marina Núñez del Prado</name><Point><coordinates>-77.03397,-12.100988,0</coordinates></Point></Placemark><Placemark><name>Municipalidad de San Isidro</name><Point><coordinates>-77.0273922,-12.0977364,0</coordinates></Point></Placemark><Placemark><name>Torre Begonias</name><Point><coordinates>-77.0239594,-12.092104,0</coordinates></Point></Placemark><Placemark><name>150</name><Point><coordinates>-77.0245028,-12.0973204,0</coordinates></Point></Placemark><Placemark><name>Viettel Perú</name><Point><coordinates>-77.0193865,-12.0978883,0</coordinates></Point></Placemark><Placemark><name>casa-museo-marina-nunez-del-prado → palacio-municipal-y-de-la-cultura-san-isidro</name><styleUrl>#walking-route</styleUrl><ExtendedData><Data name="road_distance_m"><value>968.8</value></Data></ExtendedData><LineString><tessellate>1</tessellate><altitudeMode>clampToGround</altitudeMode><coordinates>-77.033955,-12.10086,0 -77.033718,-12.100887,0 -77.033652,-12.10089,0 -77.033339,-12.100907,0 -77.033152,-12.100881,0 -77.033229,-12.100414,0 -77.033233,-12.10038,0 -77.033232,-12.100353,0 -77.033231,-12.100328,0 -77.033224,-12.100296,0 -77.033106,-12.099834,0 -77.032412,-12.099719,0 -77.032379,-12.099712,0 -77.032313,-12.0997,0 -77.032224,-12.099686,0 -77.032157,-12.099674,0 -77.032102,-12.099665,0 -77.031128,-12.099509,0 -77.030641,-12.099432,0 -77.030183,-12.099354,0 -77.029675,-12.099276,0 -77.029157,-12.099195,0 -77.029238,-12.098729,0 -77.029193,-12.098721,0 -77.029149,-12.098707,0 -77.029107,-12.098688,0 -77.029068,-12.098664,0 -77.029033,-12.098636,0 -77.029001,-12.098603,0 -77.028974,-12.098566,0 -77.028952,-12.098527,0 -77.028937,-12.09849,0 -77.028927,-12.098452,0 -77.02892,-12.098413,0 -77.028918,-12.098374,0 -77.028919,-12.098352,0 -77.02849,-12.098279,0 -77.028069,-12.098209,0 -77.028012,-12.0982,0 -77.027856,-12.098174,0 -77.027636,-12.098163,0 -77.027369,-12.098189,0 -77.027194,-12.097828,0</coordinates></LineString></Placemark><Placemark><name>palacio-municipal-y-de-la-cultura-san-isidro → torre-begonias</name><styleUrl>#walking-route</styleUrl><ExtendedData><Data name="road_distance_m"><value>768.3</value></Data></ExtendedData><LineString><tessellate>1</tessellate><altitudeMode>clampToGround</altitudeMode><coordinates>-77.027194,-12.097828,0 -77.027094,-12.097623,0 -77.026949,-12.097287,0 -77.026931,-12.097219,0 -77.026931,-12.097161,0 -77.02695,-12.096965,0 -77.026953,-12.096934,0 -77.026964,-12.096807,0 -77.026937,-12.096753,0 -77.026914,-12.096726,0 -77.026881,-12.096696,0 -77.026847,-12.096678,0 -77.026788,-12.096657,0 -77.026719,-12.09665,0 -77.026714,-12.096618,0 -77.026701,-12.096536,0 -77.026701,-12.096513,0 -77.026648,-12.096529,0 -77.026606,-12.096531,0 -77.026549,-12.096511,0 -77.026533,-12.096489,0 -77.026531,-12.096429,0 -77.026547,-12.09637,0 -77.026521,-12.096309,0 -77.026508,-12.096276,0 -77.026497,-12.096251,0 -77.026471,-12.096199,0 -77.026452,-12.096174,0 -77.026423,-12.096149,0 -77.026387,-12.096127,0 -77.026345,-12.096122,0 -77.026303,-12.09612,0 -77.026229,-12.096117,0 -77.026176,-12.096126,0 -77.026115,-12.096128,0 -77.025917,-12.09573,0 -77.025691,-12.095189,0 -77.02567,-12.095112,0 -77.025622,-12.095061,0 -77.025507,-12.094811,0 -77.025233,-12.094192,0 -77.025189,-12.094113,0 -77.025157,-12.094052,0 -77.024891,-12.093555,0 -77.024773,-12.093301,0 -77.024738,-12.093227,0 -77.024695,-12.093145,0 -77.02448,-12.09251,0 -77.02442,-12.092266,0 -77.02441,-12.092201,0 -77.024321,-12.092227,0 -77.02429,-12.092231,0 -77.024264,-12.092089,0 -77.024264,-12.092089,0</coordinates></LineString></Placemark><Placemark><name>torre-begonias → edificio-petroperu</name><styleUrl>#walking-route</styleUrl><ExtendedData><Data name="road_distance_m"><value>705.2</value></Data></ExtendedData><LineString><tessellate>1</tessellate><altitudeMode>clampToGround</altitudeMode><coordinates>-77.024264,-12.092089,0 -77.02429,-12.092231,0 -77.024337,-12.092497,0 -77.024422,-12.092782,0 -77.02458,-12.09319,0 -77.024633,-12.093322,0 -77.024648,-12.09336,0 -77.024798,-12.093726,0 -77.024987,-12.09413,0 -77.025019,-12.094197,0 -77.02506,-12.094305,0 -77.024368,-12.094632,0 -77.024348,-12.094641,0 -77.024128,-12.09474,0 -77.024169,-12.094826,0 -77.024245,-12.095001,0 -77.024296,-12.095123,0 -77.024537,-12.095626,0 -77.024618,-12.095814,0 -77.024738,-12.096076,0 -77.024919,-12.096492,0 -77.02496,-12.096585,0 -77.024973,-12.096578,0 -77.024988,-12.096586,0 -77.025005,-12.096619,0 -77.025028,-12.096661,0 -77.024738,-12.096694,0 -77.024665,-12.096691,0 -77.024698,-12.096754,0 -77.024649,-12.09676,0 -77.02468,-12.096827,0 -77.024708,-12.096897,0 -77.024574,-12.096915,0 -77.024546,-12.097016,0</coordinates></LineString></Placemark><Placemark><name>edificio-petroperu → centro-financiero-canaval-y-moreyra-rivera-navarrete</name><styleUrl>#walking-route</styleUrl><ExtendedData><Data name="road_distance_m"><value>628.1</value></Data></ExtendedData><LineString><tessellate>1</tessellate><altitudeMode>clampToGround</altitudeMode><coordinates>-77.024546,-12.097016,0 -77.024546,-12.097016,0 -77.024574,-12.096915,0 -77.024009,-12.096999,0 -77.023767,-12.097036,0 -77.023699,-12.097045,0 -77.023327,-12.097094,0 -77.02332,-12.097047,0 -77.023309,-12.096979,0 -77.021824,-12.09719,0 -77.021819,-12.097148,0 -77.021811,-12.097081,0 -77.021762,-12.097088,0 -77.021616,-12.097113,0 -77.021587,-12.097116,0 -77.021293,-12.097157,0 -77.020827,-12.097217,0 -77.02076,-12.097219,0 -77.020684,-12.097226,0 -77.020573,-12.097237,0 -77.020436,-12.097257,0 -77.020225,-12.097274,0 -77.020191,-12.097279,0 -77.020186,-12.097302,0 -77.020174,-12.097322,0 -77.020151,-12.097328,0 -77.020133,-12.097373,0 -77.020111,-12.097419,0 -77.020077,-12.097514,0 -77.019415,-12.097595,0 -77.019417,-12.09762,0 -77.019346,-12.097631,0</coordinates></LineString></Placemark></Document></kml>
