<?xml version="1.0" encoding="UTF-8"?><kml xmlns="http://www.opengis.net/kml/2.2"><Document><name>San Isidro</name><Style id="walking-route"><LineStyle><color>ff326bb8</color><width>5</width></LineStyle></Style><Placemark><name>Huaca Huallamarca</name><Point><coordinates>-77.040492,-12.0974038,0</coordinates></Point></Placemark><Placemark><name>Calle José Choquehuanca</name><Point><coordinates>-77.0446337,-12.097723,0</coordinates></Point></Placemark><Placemark><name>Hotel Country Club</name><Point><coordinates>-77.0490204,-12.0979669,0</coordinates></Point></Placemark><Placemark><name>huaca-huallamarca → calle-choquehuanca-basadre-residencial</name><styleUrl>#walking-route</styleUrl><ExtendedData><Data name="road_distance_m"><value>453.3</value></Data></ExtendedData><LineString><tessellate>1</tessellate><altitudeMode>clampToGround</altitudeMode><coordinates>-77.040947,-12.097182,0 -77.041265,-12.097804,0 -77.041362,-12.097777,0 -77.041395,-12.097842,0 -77.041456,-12.097829,0 -77.042187,-12.097702,0 -77.043142,-12.097536,0 -77.043248,-12.097527,0 -77.043299,-12.097533,0 -77.043357,-12.097541,0 -77.043421,-12.09755,0 -77.044417,-12.097692,0 -77.04449,-12.097702,0 -77.044567,-12.097713,0 -77.044634,-12.097723,0</coordinates></LineString></Placemark><Placemark><name>calle-choquehuanca-basadre-residencial → country-club-lima-hotel</name><styleUrl>#walking-route</styleUrl><ExtendedData><Data name="road_distance_m"><value>491.1</value></Data></ExtendedData><LineString><tessellate>1</tessellate><altitudeMode>clampToGround</altitudeMode><coordinates>-77.044634,-12.097723,0 -77.04555,-12.097855,0 -77.045624,-12.097862,0 -77.045711,-12.097877,0 -77.046677,-12.098023,0 -77.046779,-12.098036,0 -77.046887,-12.098048,0 -77.046944,-12.098055,0 -77.047882,-12.098172,0 -77.047931,-12.09818,0 -77.047966,-12.098185,0 -77.04808,-12.098204,0 -77.048099,-12.098181,0 -77.048121,-12.098172,0 -77.048148,-12.098173,0 -77.04817,-12.098185,0 -77.048187,-12.09821,0 -77.048289,-12.098209,0 -77.04838,-12.098162,0 -77.04843,-12.098224,0 -77.04855,-12.098329,0 -77.048593,-12.098259,0 -77.048675,-12.098178,0 -77.048711,-12.098162,0 -77.04875,-12.098159,0 -77.048776,-12.097994,0 -77.048776,-12.097994,0</coordinates></LineString></Placemark></Document></kml>
