{
  "type": "FeatureCollection",
  "features": [
    {
      "type": "Feature",
      "properties": {
        "id": "huaca-santa-cruz",
        "name": "Huaca Santa Cruz",
        "district": "San Isidro"
      },
      "geometry": {
        "type": "Point",
        "coordinates": [
          -77.048338,
          -12.104444
        ]
      }
    },
    {
      "type": "Feature",
      "properties": {
        "id": "country-club-lima-hotel",
        "name": "Hotel Country Club",
        "district": "San Isidro"
      },
      "geometry": {
        "type": "Point",
        "coordinates": [
          -77.0490204,
          -12.0979669
        ]
      }
    },
    {
      "type": "Feature",
      "properties": {
        "id": "huaca-huallamarca",
        "name": "Huaca Huallamarca",
        "district": "San Isidro"
      },
      "geometry": {
        "type": "Point",
        "coordinates": [
          -77.040492,
          -12.0974038
        ]
      }
    },
    {
      "type": "Feature",
      "properties": {
        "id": "calle-choquehuanca-basadre-residencial",
        "name": "Calle José Choquehuanca",
        "district": "San Isidro"
      },
      "geometry": {
        "type": "Point",
        "coordinates": [
          -77.0403007,
          -12.0981264
        ]
      }
    },
    {
      "type": "Feature",
      "properties": {
        "id": "casa-museo-marina-nunez-del-prado",
        "name": "Casa Museo Marina Núñez del Prado",
        "district": "San Isidro"
      },
      "geometry": {
        "type": "Point",
        "coordinates": [
          -77.03397,
          -12.100988
        ]
      }
    },
    {
      "type": "Feature",
      "properties": {
        "id": "palacio-municipal-y-de-la-cultura-san-isidro",
        "name": "Municipalidad de San Isidro",
        "district": "San Isidro"
      },
      "geometry": {
        "type": "Point",
        "coordinates": [
          -77.0273922,
          -12.0977364
        ]
      }
    },
    {
      "type": "Feature",
      "properties": {
        "id": "centro-financiero-canaval-y-moreyra-rivera-navarrete",
        "name": "Viettel Perú",
        "district": "San Isidro"
      },
      "geometry": {
        "type": "Point",
        "coordinates": [
          -77.0193865,
          -12.0978883
        ]
      }
    }
  ]
}
