<?xml version="1.0" encoding="UTF-8"?><kml xmlns="http://www.opengis.net/kml/2.2"><Document><name>San Borja</name><Placemark><name>Biblioteca Nacional</name><Point><coordinates>-77.005129,-12.0877743,0</coordinates></Point></Placemark><Placemark><name>Teatro Nacional del Perú</name><Point><coordinates>-77.0031643,-12.0866273,0</coordinates></Point></Placemark><Placemark><name>Centro de Convenciones de Lima</name><Point><coordinates>-77.000684,-12.0863298,0</coordinates></Point></Placemark><Placemark><name>Huaca San Borja</name><Point><coordinates>-77.0002329,-12.0841313,0</coordinates></Point></Placemark></Document></kml>
