{
  "type": "FeatureCollection",
  "features": [
    {
      "type": "Feature",
      "properties": {
        "id": "utec-campus-barranco",
        "name": "Universidad de Ingenieria y Tecnologia",
        "district": "Barranco"
      },
      "geometry": {
        "type": "Point",
        "coordinates": [
          -77.0221296,
          -12.1351351
        ]
      }
    },
    {
      "type": "Feature",
      "properties": {
        "id": "mac-lima-parque-espejo-de-agua",
        "name": "Museo de Arte Contemporaneo de Lima",
        "district": "Barranco"
      },
      "geometry": {
        "type": "Point",
        "coordinates": [
          -77.0232736,
          -12.1367297
        ]
      }
    },
    {
      "type": "Feature",
      "properties": {
        "from": "utec-campus-barranco",
        "to": "mac-lima-parque-espejo-de-agua",
        "road_distance_m": 406,
        "source_retrieved_at": "2026-09-03T00:26:22.093162+00:00"
      },
      "geometry": {
        "coordinates": [
          [
            -77.02228,
            -12.134929
          ],
          [
            -77.022317,
            -12.134955
          ],
          [
            -77.022539,
            -12.13514
          ],
          [
            -77.022648,
            -12.135283
          ],
          [
            -77.022677,
            -12.135381
          ],
          [
            -77.022688,
            -12.135464
          ],
          [
            -77.022693,
            -12.135546
          ],
          [
            -77.0227,
            -12.135546
          ],
          [
            -77.0227,
            -12.135558
          ],
          [
            -77.022735,
            -12.135557
          ],
          [
            -77.02278,
            -12.135556
          ],
          [
            -77.022843,
            -12.135358
          ],
          [
            -77.022803,
            -12.135343
          ],
          [
            -77.022836,
            -12.135246
          ],
          [
            -77.023181,
            -12.13541
          ],
          [
            -77.023181,
            -12.135539
          ],
          [
            -77.023138,
            -12.135548
          ],
          [
            -77.023149,
            -12.135623
          ],
          [
            -77.023159,
            -12.135648
          ],
          [
            -77.023191,
            -12.135723
          ],
          [
            -77.023198,
            -12.135739
          ],
          [
            -77.023256,
            -12.135819
          ],
          [
            -77.023312,
            -12.135875
          ],
          [
            -77.023438,
            -12.135956
          ],
          [
            -77.023537,
            -12.135999
          ],
          [
            -77.023898,
            -12.136079
          ],
          [
            -77.023891,
            -12.136097
          ],
          [
            -77.023883,
            -12.136121
          ],
          [
            -77.023851,
            -12.136151
          ],
          [
            -77.02382,
            -12.136226
          ],
          [
            -77.023797,
            -12.13631
          ],
          [
            -77.023751,
            -12.136409
          ],
          [
            -77.02371,
            -12.136487
          ],
          [
            -77.023662,
            -12.13654
          ],
          [
            -77.023569,
            -12.136604
          ],
          [
            -77.023493,
            -12.136658
          ],
          [
            -77.023439,
            -12.136632
          ],
          [
            -77.023366,
            -12.136602
          ],
          [
            -77.023352,
            -12.136631
          ],
          [
            -77.023352,
            -12.136631
          ]
        ],
        "type": "LineString"
      }
    }
  ]
}
