<?xml version="1.0" encoding="UTF-8"?><kml xmlns="http://www.opengis.net/kml/2.2"><Document><name>Barranco</name><Placemark><name>Mirador Catalina Recavarren</name><Point><coordinates>-77.0235738,-12.1496829,0</coordinates></Point></Placemark><Placemark><name>Pasaje La Ermita</name><Point><coordinates>-77.0229075,-12.1491933,0</coordinates></Point></Placemark><Placemark><name>Puente de Los Suspiros</name><Point><coordinates>-77.022591,-12.1491664,0</coordinates></Point></Placemark><Placemark><name>Iglesia Santísima Cruz</name><Point><coordinates>-77.0216208,-12.1487936,0</coordinates></Point></Placemark><Placemark><name>Parque Municipal de Barranco</name><Point><coordinates>-77.0211974,-12.1494807,0</coordinates></Point></Placemark><Placemark><name>Biblioteca Municipal</name><Point><coordinates>-77.0214626,-12.1501191,0</coordinates></Point></Placemark><Placemark><name>Museo de La Electricidad</name><Point><coordinates>-77.0217254,-12.1504015,0</coordinates></Point></Placemark><Placemark><name>Museo Pedro de Osma</name><Point><coordinates>-77.0226424,-12.1546379,0</coordinates></Point></Placemark></Document></kml>
