<?xml version="1.0" encoding="UTF-8"?><kml xmlns="http://www.opengis.net/kml/2.2"><Document><name>Lima</name><Style id="walking-route"><LineStyle><color>ff326bb8</color><width>5</width></LineStyle></Style><Placemark><name>Jirón de la Unión</name><Point><coordinates>-77.0361916,-12.0539567,0</coordinates></Point></Placemark><Placemark><name>El Damero</name><Point><coordinates>-77.0317356,-12.0487645,0</coordinates></Point></Placemark><Placemark><name>Estación de Desamparados</name><Point><coordinates>-77.0286907,-12.0443045,0</coordinates></Point></Placemark><Placemark><name>Casa Fernandini</name><Point><coordinates>-77.0351457,-12.0450471,0</coordinates></Point></Placemark><Placemark><name>jiron-de-la-union → damero-de-lima-interseccion-como-objeto</name><styleUrl>#walking-route</styleUrl><ExtendedData><Data name="road_distance_m"><value>929.2</value></Data></ExtendedData><LineString><tessellate>1</tessellate><altitudeMode>clampToGround</altitudeMode><coordinates>-77.036192,-12.053957,0 -77.036158,-12.053848,0 -77.035317,-12.05417,0 -77.034973,-12.054311,0 -77.034241,-12.053195,0 -77.033707,-12.052397,0 -77.033646,-12.052307,0 -77.033613,-12.052254,0 -77.033588,-12.052218,0 -77.033545,-12.052244,0 -77.033512,-12.052192,0 -77.033264,-12.051824,0 -77.033303,-12.051798,0 -77.033111,-12.051523,0 -77.033577,-12.051224,0 -77.033104,-12.050549,0 -77.033078,-12.050512,0 -77.033035,-12.05045,0 -77.032939,-12.050313,0 -77.032423,-12.049578,0 -77.032405,-12.049548,0 -77.032369,-12.049501,0 -77.032345,-12.049465,0 -77.032308,-12.049411,0 -77.031818,-12.04871,0</coordinates></LineString></Placemark><Placemark><name>damero-de-lima-interseccion-como-objeto → estacion-desamparados</name><styleUrl>#walking-route</styleUrl><ExtendedData><Data name="road_distance_m"><value>611.9</value></Data></ExtendedData><LineString><tessellate>1</tessellate><altitudeMode>clampToGround</altitudeMode><coordinates>-77.031818,-12.04871,0 -77.031778,-12.048654,0 -77.031754,-12.04862,0 -77.031533,-12.048304,0 -77.03112,-12.047715,0 -77.031085,-12.047664,0 -77.031045,-12.047608,0 -77.030453,-12.046761,0 -77.030409,-12.046698,0 -77.03029,-12.046529,0 -77.030208,-12.046412,0 -77.030025,-12.046155,0 -77.02988,-12.045948,0 -77.029805,-12.045838,0 -77.029764,-12.045777,0 -77.029698,-12.045741,0 -77.029,-12.044753,0 -77.028967,-12.044731,0 -77.028938,-12.04474,0 -77.028926,-12.044748,0 -77.028858,-12.044645,0 -77.028749,-12.044696,0 -77.028559,-12.044381,0</coordinates></LineString></Placemark><Placemark><name>estacion-desamparados → casa-fernandini-1913</name><styleUrl>#walking-route</styleUrl><ExtendedData><Data name="road_distance_m"><value>958.8</value></Data></ExtendedData><LineString><tessellate>1</tessellate><altitudeMode>clampToGround</altitudeMode><coordinates>-77.028559,-12.044381,0 -77.028749,-12.044696,0 -77.028858,-12.044645,0 -77.028926,-12.044748,0 -77.028938,-12.04474,0 -77.028967,-12.044731,0 -77.029,-12.044753,0 -77.029698,-12.045741,0 -77.029764,-12.045777,0 -77.029805,-12.045838,0 -77.029867,-12.045799,0 -77.029901,-12.045806,0 -77.029953,-12.045817,0 -77.029993,-12.045825,0 -77.030306,-12.045898,0 -77.030462,-12.0458,0 -77.030617,-12.045703,0 -77.030715,-12.045851,0 -77.03082,-12.046011,0 -77.031135,-12.046069,0 -77.031178,-12.046078,0 -77.031219,-12.046087,0 -77.03129,-12.046044,0 -77.031357,-12.046129,0 -77.031428,-12.046183,0 -77.032053,-12.047044,0 -77.03209,-12.047021,0 -77.033027,-12.046438,0 -77.033272,-12.04629,0 -77.034072,-12.045795,0 -77.034586,-12.045478,0 -77.034831,-12.045327,0 -77.035056,-12.045188,0 -77.035185,-12.045103,0</coordinates></LineString></Placemark></Document></kml>
