<?xml version="1.0" encoding="UTF-8"?><kml xmlns="http://www.opengis.net/kml/2.2"><Document><name>Lima</name><Style id="walking-route"><LineStyle><color>ff326bb8</color><width>5</width></LineStyle></Style><Placemark><name>Conjunto Habitacional Palomino</name><Point><coordinates>-77.0722383,-12.0603412,0</coordinates></Point></Placemark><Placemark><name>Unidad Vecinal 3</name><Point><coordinates>-77.0820644,-12.0532861,0</coordinates></Point></Placemark><Placemark><name>conjunto-habitacional-palomino → unidad-vecinal-3</name><styleUrl>#walking-route</styleUrl><ExtendedData><Data name="road_distance_m"><value>1325.6</value></Data></ExtendedData><LineString><tessellate>1</tessellate><altitudeMode>clampToGround</altitudeMode><coordinates>-77.0722383,-12.0603412,0 -77.0820644,-12.0532861,0</coordinates></LineString></Placemark></Document></kml>
