<?xml version="1.0" encoding="UTF-8"?><kml xmlns="http://www.opengis.net/kml/2.2"><Document><name>Lima</name><Placemark><name>Jirón de la Unión</name><Point><coordinates>-77.0361916,-12.0539567,0</coordinates></Point></Placemark><Placemark><name>El Damero</name><Point><coordinates>-77.0317356,-12.0487645,0</coordinates></Point></Placemark><Placemark><name>Estación de Desamparados</name><Point><coordinates>-77.0286907,-12.0443045,0</coordinates></Point></Placemark><Placemark><name>Casa Fernandini</name><Point><coordinates>-77.0351457,-12.0450471,0</coordinates></Point></Placemark></Document></kml>
