<?xml version="1.0" encoding="UTF-8"?><kml xmlns="http://www.opengis.net/kml/2.2"><Document><name>Miraflores</name><Style id="walking-route"><LineStyle><color>ff326bb8</color><width>5</width></LineStyle></Style><Placemark><name>Faro La Marina</name><Point><coordinates>-77.040152,-12.1236743,0</coordinates></Point></Placemark><Placemark><name>Parque Alberto Andrade Carmona</name><Point><coordinates>-77.0365127,-12.1267365,0</coordinates></Point></Placemark><Placemark><name>Ciclovía Puente Villena Rey</name><Point><coordinates>-77.0357271,-12.1274808,0</coordinates></Point></Placemark><Placemark><name>faro-la-marina-parque-antonio-raimondi → parque-del-amor-el-beso</name><styleUrl>#walking-route</styleUrl><ExtendedData><Data name="road_distance_m"><value>645.4</value></Data></ExtendedData><LineString><tessellate>1</tessellate><altitudeMode>clampToGround</altitudeMode><coordinates>-77.040155,-12.123768,0 -77.040171,-12.123768,0 -77.040203,-12.123756,0 -77.040229,-12.123734,0 -77.040268,-12.123839,0 -77.040214,-12.123852,0 -77.040134,-12.12387,0 -77.040065,-12.123863,0 -77.039984,-12.123846,0 -77.039892,-12.123793,0 -77.039836,-12.123774,0 -77.039769,-12.123759,0 -77.039697,-12.123749,0 -77.03963,-12.123753,0 -77.039575,-12.123764,0 -77.039557,-12.123774,0 -77.039508,-12.123801,0 -77.039465,-12.12383,0 -77.039399,-12.123875,0 -77.039368,-12.123899,0 -77.039336,-12.123928,0 -77.03931,-12.123958,0 -77.039283,-12.123999,0 -77.039185,-12.124134,0 -77.039149,-12.124185,0 -77.039084,-12.124242,0 -77.039001,-12.1243,0 -77.038933,-12.124333,0 -77.038891,-12.124349,0 -77.038854,-12.124356,0 -77.038757,-12.124372,0 -77.038699,-12.124387,0 -77.038669,-12.124393,0 -77.038636,-12.124395,0 -77.038599,-12.124392,0 -77.038573,-12.124398,0 -77.038541,-12.124405,0 -77.038508,-12.124424,0 -77.038458,-12.124462,0 -77.038398,-12.124532,0 -77.03836,-12.124574,0 -77.038339,-12.124597,0 -77.038202,-12.124844,0 -77.038182,-12.124881,0 -77.038162,-12.124927,0 -77.03813,-12.125011,0 -77.038108,-12.125092,0 -77.038102,-12.12516,0 -77.038105,-12.125213,0 -77.038119,-12.125267,0 -77.038125,-12.125303,0 -77.038117,-12.125343,0 -77.0381,-12.125385,0 -77.038057,-12.125464,0 -77.038023,-12.125508,0 -77.037964,-12.125551,0 -77.037911,-12.125576,0 -77.037818,-12.125602,0 -77.037713,-12.125601,0 -77.037638,-12.125595,0 -77.037567,-12.125592,0 -77.037509,-12.125594,0 -77.037446,-12.125615,0 -77.037389,-12.125645,0 -77.037347,-12.125675,0 -77.03731,-12.125708,0 -77.037278,-12.125745,0 -77.037251,-12.125787,0 -77.037224,-12.125843,0 -77.037196,-12.125901,0 -77.037165,-12.125943,0 -77.037115,-12.125974,0 -77.037065,-12.125988,0 -77.037017,-12.125995,0 -77.036981,-12.126012,0 -77.036933,-12.126053,0 -77.036779,-12.126183,0 -77.03671,-12.126273,0 -77.03665,-12.126237,0 -77.036569,-12.126354,0 -77.03632,-12.126673,0 -77.036454,-12.126798,0</coordinates></LineString></Placemark><Placemark><name>parque-del-amor-el-beso → puente-villena-bajada-balta-costa-verde</name><styleUrl>#walking-route</styleUrl><ExtendedData><Data name="road_distance_m"><value>244.9</value></Data></ExtendedData><LineString><tessellate>1</tessellate><altitudeMode>clampToGround</altitudeMode><coordinates>-77.036454,-12.126798,0 -77.03632,-12.126673,0 -77.036031,-12.127063,0 -77.036015,-12.127081,0 -77.035479,-12.127904,0 -77.035471,-12.12792,0 -77.035451,-12.127911,0 -77.035462,-12.127896,0 -77.035727,-12.127481,0</coordinates></LineString></Placemark></Document></kml>
