{
  "type": "FeatureCollection",
  "features": [
    {
      "type": "Feature",
      "properties": {
        "id": "larcomar-acantilado",
        "name": "Larcomar",
        "district": "Miraflores"
      },
      "geometry": {
        "type": "Point",
        "coordinates": [
          -77.0302263,
          -12.1322184
        ]
      }
    },
    {
      "type": "Feature",
      "properties": {
        "id": "reducto-2-casa-museo-caceres",
        "name": "Reducto",
        "district": "Miraflores"
      },
      "geometry": {
        "type": "Point",
        "coordinates": [
          -77.0319172,
          -12.1300445
        ]
      }
    },
    {
      "type": "Feature",
      "properties": {
        "id": "calle-porta-y-casonas-frente-a-verticalizacion",
        "name": "Calle Porta",
        "district": "Miraflores"
      },
      "geometry": {
        "type": "Point",
        "coordinates": [
          -77.0328783,
          -12.1270431
        ]
      }
    },
    {
      "type": "Feature",
      "properties": {
        "id": "parque-kennedy-gatos-civic-core",
        "name": "Parque John F. Kennedy",
        "district": "Miraflores"
      },
      "geometry": {
        "type": "Point",
        "coordinates": [
          -77.0304221,
          -12.1217806
        ]
      }
    },
    {
      "type": "Feature",
      "properties": {
        "id": "palacio-municipal-virgen-milagrosa",
        "name": "Municipalidad de Miraflores",
        "district": "Miraflores"
      },
      "geometry": {
        "type": "Point",
        "coordinates": [
          -77.0292108,
          -12.1217599
        ]
      }
    },
    {
      "type": "Feature",
      "properties": {
        "from": "larcomar-acantilado",
        "to": "reducto-2-casa-museo-caceres",
        "road_distance_m": 354.1,
        "source_retrieved_at": "2026-09-03T00:26:22.093162+00:00"
      },
      "geometry": {
        "coordinates": [
          [
            -77.030099,
            -12.13209
          ],
          [
            -77.03013,
            -12.13206
          ],
          [
            -77.030176,
            -12.132018
          ],
          [
            -77.030026,
            -12.13181
          ],
          [
            -77.030175,
            -12.131672
          ],
          [
            -77.03023,
            -12.131594
          ],
          [
            -77.030158,
            -12.131461
          ],
          [
            -77.030141,
            -12.131442
          ],
          [
            -77.030118,
            -12.131415
          ],
          [
            -77.030168,
            -12.131375
          ],
          [
            -77.030508,
            -12.131101
          ],
          [
            -77.030589,
            -12.131035
          ],
          [
            -77.030639,
            -12.130995
          ],
          [
            -77.030749,
            -12.130931
          ],
          [
            -77.030869,
            -12.130878
          ],
          [
            -77.030963,
            -12.13085
          ],
          [
            -77.031029,
            -12.130839
          ],
          [
            -77.031065,
            -12.130841
          ],
          [
            -77.031183,
            -12.130782
          ],
          [
            -77.031251,
            -12.130734
          ],
          [
            -77.031302,
            -12.130667
          ],
          [
            -77.031319,
            -12.130608
          ],
          [
            -77.031381,
            -12.130473
          ],
          [
            -77.031443,
            -12.130368
          ],
          [
            -77.031512,
            -12.130281
          ],
          [
            -77.031563,
            -12.130222
          ],
          [
            -77.031641,
            -12.130147
          ],
          [
            -77.031733,
            -12.130094
          ],
          [
            -77.031865,
            -12.130034
          ],
          [
            -77.031912,
            -12.130023
          ]
        ],
        "type": "LineString"
      }
    },
    {
      "type": "Feature",
      "properties": {
        "from": "reducto-2-casa-museo-caceres",
        "to": "calle-porta-y-casonas-frente-a-verticalizacion",
        "road_distance_m": 479.4,
        "source_retrieved_at": "2026-09-03T00:26:22.093162+00:00"
      },
      "geometry": {
        "coordinates": [
          [
            -77.031912,
            -12.130023
          ],
          [
            -77.031865,
            -12.130034
          ],
          [
            -77.03174,
            -12.129597
          ],
          [
            -77.03159,
            -12.129073
          ],
          [
            -77.031291,
            -12.12808
          ],
          [
            -77.032445,
            -12.127656
          ],
          [
            -77.033036,
            -12.127428
          ],
          [
            -77.032878,
            -12.127043
          ]
        ],
        "type": "LineString"
      }
    },
    {
      "type": "Feature",
      "properties": {
        "from": "calle-porta-y-casonas-frente-a-verticalizacion",
        "to": "parque-kennedy-gatos-civic-core",
        "road_distance_m": 709.4,
        "source_retrieved_at": "2026-09-03T00:26:22.093162+00:00"
      },
      "geometry": {
        "coordinates": [
          [
            -77.032878,
            -12.127043
          ],
          [
            -77.032753,
            -12.126738
          ],
          [
            -77.032728,
            -12.126676
          ],
          [
            -77.032706,
            -12.126624
          ],
          [
            -77.032678,
            -12.126555
          ],
          [
            -77.0324,
            -12.125874
          ],
          [
            -77.032344,
            -12.125741
          ],
          [
            -77.032063,
            -12.125047
          ],
          [
            -77.032042,
            -12.124995
          ],
          [
            -77.032026,
            -12.124953
          ],
          [
            -77.032023,
            -12.124945
          ],
          [
            -77.032003,
            -12.124901
          ],
          [
            -77.031715,
            -12.124245
          ],
          [
            -77.03171,
            -12.124234
          ],
          [
            -77.031705,
            -12.124223
          ],
          [
            -77.031667,
            -12.124136
          ],
          [
            -77.03165,
            -12.124095
          ],
          [
            -77.031334,
            -12.123397
          ],
          [
            -77.031158,
            -12.122988
          ],
          [
            -77.031011,
            -12.123038
          ],
          [
            -77.030918,
            -12.123018
          ],
          [
            -77.030835,
            -12.122991
          ],
          [
            -77.030728,
            -12.12292
          ],
          [
            -77.030657,
            -12.12276
          ],
          [
            -77.030643,
            -12.122707
          ],
          [
            -77.030442,
            -12.122752
          ],
          [
            -77.030427,
            -12.122677
          ],
          [
            -77.030452,
            -12.122616
          ],
          [
            -77.030451,
            -12.122607
          ],
          [
            -77.030429,
            -12.122421
          ],
          [
            -77.030457,
            -12.122392
          ],
          [
            -77.030503,
            -12.122345
          ],
          [
            -77.030637,
            -12.122116
          ],
          [
            -77.030579,
            -12.122067
          ],
          [
            -77.030527,
            -12.122014
          ],
          [
            -77.03048,
            -12.121943
          ],
          [
            -77.030453,
            -12.121869
          ],
          [
            -77.030412,
            -12.121779
          ],
          [
            -77.030418,
            -12.121775
          ]
        ],
        "type": "LineString"
      }
    },
    {
      "type": "Feature",
      "properties": {
        "from": "parque-kennedy-gatos-civic-core",
        "to": "palacio-municipal-virgen-milagrosa",
        "road_distance_m": 197.5,
        "source_retrieved_at": "2026-09-03T00:26:22.093162+00:00"
      },
      "geometry": {
        "coordinates": [
          [
            -77.030418,
            -12.121775
          ],
          [
            -77.030412,
            -12.121779
          ],
          [
            -77.030406,
            -12.121782
          ],
          [
            -77.030378,
            -12.12179
          ],
          [
            -77.030345,
            -12.12179
          ],
          [
            -77.030338,
            -12.121788
          ],
          [
            -77.030287,
            -12.121947
          ],
          [
            -77.030217,
            -12.12198
          ],
          [
            -77.030194,
            -12.122013
          ],
          [
            -77.030135,
            -12.122032
          ],
          [
            -77.030119,
            -12.122037
          ],
          [
            -77.029761,
            -12.122152
          ],
          [
            -77.029712,
            -12.122062
          ],
          [
            -77.029571,
            -12.121803
          ],
          [
            -77.029435,
            -12.121552
          ],
          [
            -77.029418,
            -12.12156
          ],
          [
            -77.029172,
            -12.121687
          ]
        ],
        "type": "LineString"
      }
    }
  ]
}
