{
  "type": "FeatureCollection",
  "features": [
    {
      "type": "Feature",
      "properties": {
        "id": "casa-museo-ricardo-palma",
        "name": "Casa Museo Ricardo Palma",
        "district": "Miraflores"
      },
      "geometry": {
        "type": "Point",
        "coordinates": [
          -77.0276037,
          -12.1184154
        ]
      }
    },
    {
      "type": "Feature",
      "properties": {
        "id": "ovalo-de-miraflores",
        "name": "Óvalo de Miraflores",
        "district": "Miraflores"
      },
      "geometry": {
        "type": "Point",
        "coordinates": [
          -77.0288947,
          -12.1190866
        ]
      }
    },
    {
      "type": "Feature",
      "properties": {
        "id": "centro-cultural-ccori-wasi",
        "name": "Centro Cultural CCORI WASI",
        "district": "Miraflores"
      },
      "geometry": {
        "type": "Point",
        "coordinates": [
          -77.0295256,
          -12.1175413
        ]
      }
    },
    {
      "type": "Feature",
      "properties": {
        "id": "huaca-pucllana",
        "name": "Huaca Pucllana",
        "district": "Miraflores"
      },
      "geometry": {
        "type": "Point",
        "coordinates": [
          -77.0339531,
          -12.1114871
        ]
      }
    }
  ]
}
