{
  "type": "FeatureCollection",
  "features": [
    {
      "type": "Feature",
      "properties": {
        "id": "faro-la-marina-parque-antonio-raimondi",
        "name": "Faro La Marina",
        "district": "Miraflores"
      },
      "geometry": {
        "type": "Point",
        "coordinates": [
          -77.040152,
          -12.1236743
        ]
      }
    },
    {
      "type": "Feature",
      "properties": {
        "id": "parque-del-amor-el-beso",
        "name": "Parque Alberto Andrade Carmona",
        "district": "Miraflores"
      },
      "geometry": {
        "type": "Point",
        "coordinates": [
          -77.0365127,
          -12.1267365
        ]
      }
    },
    {
      "type": "Feature",
      "properties": {
        "id": "puente-villena-bajada-balta-costa-verde",
        "name": "Ciclovía Puente Villena Rey",
        "district": "Miraflores"
      },
      "geometry": {
        "type": "Point",
        "coordinates": [
          -77.0357271,
          -12.1274808
        ]
      }
    },
    {
      "type": "Feature",
      "properties": {
        "from": "faro-la-marina-parque-antonio-raimondi",
        "to": "parque-del-amor-el-beso",
        "road_distance_m": 645.4,
        "source_retrieved_at": "2026-09-03T00:26:22.093162+00:00"
      },
      "geometry": {
        "coordinates": [
          [
            -77.040155,
            -12.123768
          ],
          [
            -77.040171,
            -12.123768
          ],
          [
            -77.040203,
            -12.123756
          ],
          [
            -77.040229,
            -12.123734
          ],
          [
            -77.040268,
            -12.123839
          ],
          [
            -77.040214,
            -12.123852
          ],
          [
            -77.040134,
            -12.12387
          ],
          [
            -77.040065,
            -12.123863
          ],
          [
            -77.039984,
            -12.123846
          ],
          [
            -77.039892,
            -12.123793
          ],
          [
            -77.039836,
            -12.123774
          ],
          [
            -77.039769,
            -12.123759
          ],
          [
            -77.039697,
            -12.123749
          ],
          [
            -77.03963,
            -12.123753
          ],
          [
            -77.039575,
            -12.123764
          ],
          [
            -77.039557,
            -12.123774
          ],
          [
            -77.039508,
            -12.123801
          ],
          [
            -77.039465,
            -12.12383
          ],
          [
            -77.039399,
            -12.123875
          ],
          [
            -77.039368,
            -12.123899
          ],
          [
            -77.039336,
            -12.123928
          ],
          [
            -77.03931,
            -12.123958
          ],
          [
            -77.039283,
            -12.123999
          ],
          [
            -77.039185,
            -12.124134
          ],
          [
            -77.039149,
            -12.124185
          ],
          [
            -77.039084,
            -12.124242
          ],
          [
            -77.039001,
            -12.1243
          ],
          [
            -77.038933,
            -12.124333
          ],
          [
            -77.038891,
            -12.124349
          ],
          [
            -77.038854,
            -12.124356
          ],
          [
            -77.038757,
            -12.124372
          ],
          [
            -77.038699,
            -12.124387
          ],
          [
            -77.038669,
            -12.124393
          ],
          [
            -77.038636,
            -12.124395
          ],
          [
            -77.038599,
            -12.124392
          ],
          [
            -77.038573,
            -12.124398
          ],
          [
            -77.038541,
            -12.124405
          ],
          [
            -77.038508,
            -12.124424
          ],
          [
            -77.038458,
            -12.124462
          ],
          [
            -77.038398,
            -12.124532
          ],
          [
            -77.03836,
            -12.124574
          ],
          [
            -77.038339,
            -12.124597
          ],
          [
            -77.038202,
            -12.124844
          ],
          [
            -77.038182,
            -12.124881
          ],
          [
            -77.038162,
            -12.124927
          ],
          [
            -77.03813,
            -12.125011
          ],
          [
            -77.038108,
            -12.125092
          ],
          [
            -77.038102,
            -12.12516
          ],
          [
            -77.038105,
            -12.125213
          ],
          [
            -77.038119,
            -12.125267
          ],
          [
            -77.038125,
            -12.125303
          ],
          [
            -77.038117,
            -12.125343
          ],
          [
            -77.0381,
            -12.125385
          ],
          [
            -77.038057,
            -12.125464
          ],
          [
            -77.038023,
            -12.125508
          ],
          [
            -77.037964,
            -12.125551
          ],
          [
            -77.037911,
            -12.125576
          ],
          [
            -77.037818,
            -12.125602
          ],
          [
            -77.037713,
            -12.125601
          ],
          [
            -77.037638,
            -12.125595
          ],
          [
            -77.037567,
            -12.125592
          ],
          [
            -77.037509,
            -12.125594
          ],
          [
            -77.037446,
            -12.125615
          ],
          [
            -77.037389,
            -12.125645
          ],
          [
            -77.037347,
            -12.125675
          ],
          [
            -77.03731,
            -12.125708
          ],
          [
            -77.037278,
            -12.125745
          ],
          [
            -77.037251,
            -12.125787
          ],
          [
            -77.037224,
            -12.125843
          ],
          [
            -77.037196,
            -12.125901
          ],
          [
            -77.037165,
            -12.125943
          ],
          [
            -77.037115,
            -12.125974
          ],
          [
            -77.037065,
            -12.125988
          ],
          [
            -77.037017,
            -12.125995
          ],
          [
            -77.036981,
            -12.126012
          ],
          [
            -77.036933,
            -12.126053
          ],
          [
            -77.036779,
            -12.126183
          ],
          [
            -77.03671,
            -12.126273
          ],
          [
            -77.03665,
            -12.126237
          ],
          [
            -77.036569,
            -12.126354
          ],
          [
            -77.03632,
            -12.126673
          ],
          [
            -77.036454,
            -12.126798
          ]
        ],
        "type": "LineString"
      }
    },
    {
      "type": "Feature",
      "properties": {
        "from": "parque-del-amor-el-beso",
        "to": "puente-villena-bajada-balta-costa-verde",
        "road_distance_m": 244.9,
        "source_retrieved_at": "2026-09-03T00:26:22.093162+00:00"
      },
      "geometry": {
        "coordinates": [
          [
            -77.036454,
            -12.126798
          ],
          [
            -77.03632,
            -12.126673
          ],
          [
            -77.036031,
            -12.127063
          ],
          [
            -77.036015,
            -12.127081
          ],
          [
            -77.035479,
            -12.127904
          ],
          [
            -77.035471,
            -12.12792
          ],
          [
            -77.035451,
            -12.127911
          ],
          [
            -77.035462,
            -12.127896
          ],
          [
            -77.035727,
            -12.127481
          ]
        ],
        "type": "LineString"
      }
    }
  ]
}
