<?xml version="1.0" encoding="UTF-8"?><kml xmlns="http://www.opengis.net/kml/2.2"><Document><name>Miraflores</name><Style id="walking-route"><LineStyle><color>ff326bb8</color><width>5</width></LineStyle></Style><Placemark><name>Larcomar</name><Point><coordinates>-77.0302263,-12.1322184,0</coordinates></Point></Placemark><Placemark><name>Reducto</name><Point><coordinates>-77.0319172,-12.1300445,0</coordinates></Point></Placemark><Placemark><name>Calle Porta</name><Point><coordinates>-77.0328783,-12.1270431,0</coordinates></Point></Placemark><Placemark><name>Parque John F. Kennedy</name><Point><coordinates>-77.0304221,-12.1217806,0</coordinates></Point></Placemark><Placemark><name>Municipalidad de Miraflores</name><Point><coordinates>-77.0292108,-12.1217599,0</coordinates></Point></Placemark><Placemark><name>larcomar-acantilado → reducto-2-casa-museo-caceres</name><styleUrl>#walking-route</styleUrl><ExtendedData><Data name="road_distance_m"><value>354.1</value></Data></ExtendedData><LineString><tessellate>1</tessellate><altitudeMode>clampToGround</altitudeMode><coordinates>-77.030099,-12.13209,0 -77.03013,-12.13206,0 -77.030176,-12.132018,0 -77.030026,-12.13181,0 -77.030175,-12.131672,0 -77.03023,-12.131594,0 -77.030158,-12.131461,0 -77.030141,-12.131442,0 -77.030118,-12.131415,0 -77.030168,-12.131375,0 -77.030508,-12.131101,0 -77.030589,-12.131035,0 -77.030639,-12.130995,0 -77.030749,-12.130931,0 -77.030869,-12.130878,0 -77.030963,-12.13085,0 -77.031029,-12.130839,0 -77.031065,-12.130841,0 -77.031183,-12.130782,0 -77.031251,-12.130734,0 -77.031302,-12.130667,0 -77.031319,-12.130608,0 -77.031381,-12.130473,0 -77.031443,-12.130368,0 -77.031512,-12.130281,0 -77.031563,-12.130222,0 -77.031641,-12.130147,0 -77.031733,-12.130094,0 -77.031865,-12.130034,0 -77.031912,-12.130023,0</coordinates></LineString></Placemark><Placemark><name>reducto-2-casa-museo-caceres → calle-porta-y-casonas-frente-a-verticalizacion</name><styleUrl>#walking-route</styleUrl><ExtendedData><Data name="road_distance_m"><value>479.4</value></Data></ExtendedData><LineString><tessellate>1</tessellate><altitudeMode>clampToGround</altitudeMode><coordinates>-77.031912,-12.130023,0 -77.031865,-12.130034,0 -77.03174,-12.129597,0 -77.03159,-12.129073,0 -77.031291,-12.12808,0 -77.032445,-12.127656,0 -77.033036,-12.127428,0 -77.032878,-12.127043,0</coordinates></LineString></Placemark><Placemark><name>calle-porta-y-casonas-frente-a-verticalizacion → parque-kennedy-gatos-civic-core</name><styleUrl>#walking-route</styleUrl><ExtendedData><Data name="road_distance_m"><value>709.4</value></Data></ExtendedData><LineString><tessellate>1</tessellate><altitudeMode>clampToGround</altitudeMode><coordinates>-77.032878,-12.127043,0 -77.032753,-12.126738,0 -77.032728,-12.126676,0 -77.032706,-12.126624,0 -77.032678,-12.126555,0 -77.0324,-12.125874,0 -77.032344,-12.125741,0 -77.032063,-12.125047,0 -77.032042,-12.124995,0 -77.032026,-12.124953,0 -77.032023,-12.124945,0 -77.032003,-12.124901,0 -77.031715,-12.124245,0 -77.03171,-12.124234,0 -77.031705,-12.124223,0 -77.031667,-12.124136,0 -77.03165,-12.124095,0 -77.031334,-12.123397,0 -77.031158,-12.122988,0 -77.031011,-12.123038,0 -77.030918,-12.123018,0 -77.030835,-12.122991,0 -77.030728,-12.12292,0 -77.030657,-12.12276,0 -77.030643,-12.122707,0 -77.030442,-12.122752,0 -77.030427,-12.122677,0 -77.030452,-12.122616,0 -77.030451,-12.122607,0 -77.030429,-12.122421,0 -77.030457,-12.122392,0 -77.030503,-12.122345,0 -77.030637,-12.122116,0 -77.030579,-12.122067,0 -77.030527,-12.122014,0 -77.03048,-12.121943,0 -77.030453,-12.121869,0 -77.030412,-12.121779,0 -77.030418,-12.121775,0</coordinates></LineString></Placemark><Placemark><name>parque-kennedy-gatos-civic-core → palacio-municipal-virgen-milagrosa</name><styleUrl>#walking-route</styleUrl><ExtendedData><Data name="road_distance_m"><value>197.5</value></Data></ExtendedData><LineString><tessellate>1</tessellate><altitudeMode>clampToGround</altitudeMode><coordinates>-77.030418,-12.121775,0 -77.030412,-12.121779,0 -77.030406,-12.121782,0 -77.030378,-12.12179,0 -77.030345,-12.12179,0 -77.030338,-12.121788,0 -77.030287,-12.121947,0 -77.030217,-12.12198,0 -77.030194,-12.122013,0 -77.030135,-12.122032,0 -77.030119,-12.122037,0 -77.029761,-12.122152,0 -77.029712,-12.122062,0 -77.029571,-12.121803,0 -77.029435,-12.121552,0 -77.029418,-12.12156,0 -77.029172,-12.121687,0</coordinates></LineString></Placemark></Document></kml>
