<?xml version="1.0" encoding="UTF-8"?><kml xmlns="http://www.opengis.net/kml/2.2"><Document><name>Miraflores</name><Style id="walking-route"><LineStyle><color>ff326bb8</color><width>5</width></LineStyle></Style><Placemark><name>Centro Cultural CCORI WASI</name><Point><coordinates>-77.0295256,-12.1175413,0</coordinates></Point></Placemark><Placemark><name>Óvalo de Miraflores</name><Point><coordinates>-77.0288947,-12.1190866,0</coordinates></Point></Placemark><Placemark><name>Casa Museo Ricardo Palma</name><Point><coordinates>-77.0276037,-12.1184154,0</coordinates></Point></Placemark><Placemark><name>Instituto Raúl Porras Barrenechea</name><Point><coordinates>-77.026981,-12.118414,0</coordinates></Point></Placemark><Placemark><name>centro-cultural-ccori-wasi → ovalo-de-miraflores</name><styleUrl>#walking-route</styleUrl><ExtendedData><Data name="road_distance_m"><value>229.5</value></Data></ExtendedData><LineString><tessellate>1</tessellate><altitudeMode>clampToGround</altitudeMode><coordinates>-77.029292,-12.117502,0 -77.029254,-12.117719,0 -77.029229,-12.117864,0 -77.029176,-12.117824,0 -77.029155,-12.117955,0 -77.029154,-12.117957,0 -77.029139,-12.118045,0 -77.029012,-12.118795,0 -77.028971,-12.118784,0 -77.028927,-12.118774,0 -77.028866,-12.118765,0 -77.028837,-12.118956,0 -77.028776,-12.118984,0 -77.028743,-12.118985,0 -77.028728,-12.119037,0 -77.028895,-12.119036,0</coordinates></LineString></Placemark><Placemark><name>ovalo-de-miraflores → casa-museo-ricardo-palma</name><styleUrl>#walking-route</styleUrl><ExtendedData><Data name="road_distance_m"><value>223.9</value></Data></ExtendedData><LineString><tessellate>1</tessellate><altitudeMode>clampToGround</altitudeMode><coordinates>-77.028895,-12.119036,0 -77.028728,-12.119037,0 -77.028193,-12.119043,0 -77.028192,-12.119002,0 -77.028184,-12.118282,0 -77.02809,-12.118282,0 -77.028044,-12.118282,0 -77.027603,-12.118285,0</coordinates></LineString></Placemark><Placemark><name>casa-museo-ricardo-palma → casa-raul-porras-barrenechea</name><styleUrl>#walking-route</styleUrl><ExtendedData><Data name="road_distance_m"><value>67.8</value></Data></ExtendedData><LineString><tessellate>1</tessellate><altitudeMode>clampToGround</altitudeMode><coordinates>-77.027603,-12.118285,0 -77.027433,-12.118286,0 -77.02698,-12.118288,0</coordinates></LineString></Placemark></Document></kml>
