{
  "type": "FeatureCollection",
  "features": [
    {
      "type": "Feature",
      "properties": {
        "id": "huaca-julio-c-tello",
        "name": "Huaca Julio C. Tello",
        "district": "Pueblo Libre"
      },
      "geometry": {
        "type": "Point",
        "coordinates": [
          -77.07205,
          -12.0684338
        ]
      }
    },
    {
      "type": "Feature",
      "properties": {
        "id": "parque-de-las-americas",
        "name": "Parque de las Américas",
        "district": "Pueblo Libre"
      },
      "geometry": {
        "type": "Point",
        "coordinates": [
          -77.0678766,
          -12.0706736
        ]
      }
    },
    {
      "type": "Feature",
      "properties": {
        "id": "antigua-taberna-queirolo",
        "name": "Antigua Taberna Queirolo",
        "district": "Pueblo Libre"
      },
      "geometry": {
        "type": "Point",
        "coordinates": [
          -77.0630716,
          -12.0775934
        ]
      }
    }
  ]
}
