{
  "type": "FeatureCollection",
  "features": [
    {
      "type": "Feature",
      "properties": {
        "id": "parque-de-las-americas",
        "name": "Parque de las Américas",
        "district": "Pueblo Libre"
      },
      "geometry": {
        "type": "Point",
        "coordinates": [
          -77.0678766,
          -12.0706736
        ]
      }
    },
    {
      "type": "Feature",
      "properties": {
        "id": "museo-larco-jardines",
        "name": "Museo Larco",
        "district": "Pueblo Libre"
      },
      "geometry": {
        "type": "Point",
        "coordinates": [
          -77.0709002,
          -12.0727847
        ]
      }
    },
    {
      "type": "Feature",
      "properties": {
        "id": "huaca-julio-c-tello",
        "name": "Huaca Julio C. Tello",
        "district": "Pueblo Libre"
      },
      "geometry": {
        "type": "Point",
        "coordinates": [
          -77.07205,
          -12.0684338
        ]
      }
    },
    {
      "type": "Feature",
      "properties": {
        "from": "parque-de-las-americas",
        "to": "museo-larco-jardines",
        "road_distance_m": 875.2,
        "source_retrieved_at": "2026-09-03T00:26:22.093162+00:00"
      },
      "geometry": {
        "coordinates": [
          [
            -77.067875,
            -12.070668
          ],
          [
            -77.067878,
            -12.070667
          ],
          [
            -77.06791,
            -12.070659
          ],
          [
            -77.067943,
            -12.070656
          ],
          [
            -77.067972,
            -12.070657
          ],
          [
            -77.067977,
            -12.070658
          ],
          [
            -77.068009,
            -12.070665
          ],
          [
            -77.06804,
            -12.070677
          ],
          [
            -77.068069,
            -12.070694
          ],
          [
            -77.068094,
            -12.070715
          ],
          [
            -77.068116,
            -12.07074
          ],
          [
            -77.068116,
            -12.070643
          ],
          [
            -77.067968,
            -12.070229
          ],
          [
            -77.068169,
            -12.069983
          ],
          [
            -77.068415,
            -12.069743
          ],
          [
            -77.068407,
            -12.069594
          ],
          [
            -77.068484,
            -12.0696
          ],
          [
            -77.068527,
            -12.0696
          ],
          [
            -77.068531,
            -12.069544
          ],
          [
            -77.069111,
            -12.069561
          ],
          [
            -77.069103,
            -12.069867
          ],
          [
            -77.069106,
            -12.069993
          ],
          [
            -77.069111,
            -12.070068
          ],
          [
            -77.069118,
            -12.070134
          ],
          [
            -77.069151,
            -12.070267
          ],
          [
            -77.069188,
            -12.070418
          ],
          [
            -77.069272,
            -12.070727
          ],
          [
            -77.069319,
            -12.070711
          ],
          [
            -77.06979,
            -12.070635
          ],
          [
            -77.069993,
            -12.071473
          ],
          [
            -77.070061,
            -12.07177
          ],
          [
            -77.070109,
            -12.071978
          ],
          [
            -77.070166,
            -12.071967
          ],
          [
            -77.070175,
            -12.072011
          ],
          [
            -77.070194,
            -12.072103
          ],
          [
            -77.070215,
            -12.072224
          ],
          [
            -77.070408,
            -12.072187
          ],
          [
            -77.071049,
            -12.072052
          ],
          [
            -77.071144,
            -12.072477
          ],
          [
            -77.0712,
            -12.072761
          ],
          [
            -77.071187,
            -12.072763
          ],
          [
            -77.071159,
            -12.072767
          ],
          [
            -77.07112,
            -12.072548
          ],
          [
            -77.071113,
            -12.072536
          ],
          [
            -77.071096,
            -12.07253
          ],
          [
            -77.071085,
            -12.072533
          ],
          [
            -77.071058,
            -12.07254
          ],
          [
            -77.070829,
            -12.0726
          ],
          [
            -77.070835,
            -12.072626
          ],
          [
            -77.070835,
            -12.072626
          ]
        ],
        "type": "LineString"
      }
    },
    {
      "type": "Feature",
      "properties": {
        "from": "museo-larco-jardines",
        "to": "huaca-julio-c-tello",
        "road_distance_m": 779.6,
        "source_retrieved_at": "2026-09-03T00:26:22.093162+00:00"
      },
      "geometry": {
        "coordinates": [
          [
            -77.070835,
            -12.072626
          ],
          [
            -77.070829,
            -12.0726
          ],
          [
            -77.071058,
            -12.07254
          ],
          [
            -77.071085,
            -12.072533
          ],
          [
            -77.071096,
            -12.07253
          ],
          [
            -77.071113,
            -12.072536
          ],
          [
            -77.07112,
            -12.072548
          ],
          [
            -77.071159,
            -12.072767
          ],
          [
            -77.071187,
            -12.072763
          ],
          [
            -77.0712,
            -12.072761
          ],
          [
            -77.071262,
            -12.072755
          ],
          [
            -77.071311,
            -12.07275
          ],
          [
            -77.071248,
            -12.0725
          ],
          [
            -77.071237,
            -12.072454
          ],
          [
            -77.071232,
            -12.072435
          ],
          [
            -77.071259,
            -12.072429
          ],
          [
            -77.071531,
            -12.072364
          ],
          [
            -77.071626,
            -12.072343
          ],
          [
            -77.071802,
            -12.072304
          ],
          [
            -77.072087,
            -12.072235
          ],
          [
            -77.072333,
            -12.072177
          ],
          [
            -77.072241,
            -12.071772
          ],
          [
            -77.072298,
            -12.071749
          ],
          [
            -77.072359,
            -12.071736
          ],
          [
            -77.072367,
            -12.071723
          ],
          [
            -77.072424,
            -12.071707
          ],
          [
            -77.072418,
            -12.071669
          ],
          [
            -77.072419,
            -12.071651
          ],
          [
            -77.072398,
            -12.071543
          ],
          [
            -77.072483,
            -12.071524
          ],
          [
            -77.072469,
            -12.071469
          ],
          [
            -77.072408,
            -12.071247
          ],
          [
            -77.072337,
            -12.070918
          ],
          [
            -77.072825,
            -12.070814
          ],
          [
            -77.072744,
            -12.070449
          ],
          [
            -77.072604,
            -12.06985
          ],
          [
            -77.072493,
            -12.068887
          ],
          [
            -77.072411,
            -12.068285
          ],
          [
            -77.072042,
            -12.068311
          ],
          [
            -77.072042,
            -12.068311
          ]
        ],
        "type": "LineString"
      }
    }
  ]
}
