<?xml version="1.0" encoding="UTF-8"?><kml xmlns="http://www.opengis.net/kml/2.2"><Document><name>Pueblo Libre</name><Placemark><name>Parque 3 de octubre</name><Point><coordinates>-77.0600562,-12.0785729,0</coordinates></Point></Placemark><Placemark><name>Museo Nacional de Arqueología</name><Point><coordinates>-77.0622797,-12.0773665,0</coordinates></Point></Placemark><Placemark><name>Antigua Taberna Queirolo</name><Point><coordinates>-77.0630716,-12.0775934,0</coordinates></Point></Placemark><Placemark><name>Parque Candamo</name><Point><coordinates>-77.0634772,-12.0740945,0</coordinates></Point></Placemark><Placemark><name>Plaza de la Bandera</name><Point><coordinates>-77.0607729,-12.0680591,0</coordinates></Point></Placemark></Document></kml>
