{
  "type": "FeatureCollection",
  "features": [
    {
      "type": "Feature",
      "properties": {
        "id": "jiron-trujillo-puente-de-piedra",
        "name": "Jirón Trujillo",
        "district": "Rímac"
      },
      "geometry": {
        "type": "Point",
        "coordinates": [
          -77.0284544,
          -12.0361568
        ]
      }
    },
    {
      "type": "Feature",
      "properties": {
        "id": "cantagallo-comunidad-shipibo-konibo",
        "name": "Cantagallo",
        "district": "Rímac"
      },
      "geometry": {
        "type": "Point",
        "coordinates": [
          -77.017188,
          -12.0422548
        ]
      }
    },
    {
      "type": "Feature",
      "properties": {
        "from": "jiron-trujillo-puente-de-piedra",
        "to": "cantagallo-comunidad-shipibo-konibo",
        "road_distance_m": 1400.3,
        "source_retrieved_at": "2026-09-01T00:00:00Z"
      },
      "geometry": {
        "type": "LineString",
        "coordinates": [
          [
            -77.0284544,
            -12.0361568
          ],
          [
            -77.017188,
            -12.0422548
          ]
        ]
      }
    }
  ]
}
