<?xml version="1.0" encoding="UTF-8"?><kml xmlns="http://www.opengis.net/kml/2.2"><Document><name>Rímac</name><Style id="walking-route"><LineStyle><color>ff326bb8</color><width>5</width></LineStyle></Style><Placemark><name>Jirón Trujillo</name><Point><coordinates>-77.0284544,-12.0361568,0</coordinates></Point></Placemark><Placemark><name>Cantagallo</name><Point><coordinates>-77.017188,-12.0422548,0</coordinates></Point></Placemark><Placemark><name>jiron-trujillo-puente-de-piedra → cantagallo-comunidad-shipibo-konibo</name><styleUrl>#walking-route</styleUrl><ExtendedData><Data name="road_distance_m"><value>1400.3</value></Data></ExtendedData><LineString><tessellate>1</tessellate><altitudeMode>clampToGround</altitudeMode><coordinates>-77.0284544,-12.0361568,0 -77.017188,-12.0422548,0</coordinates></LineString></Placemark></Document></kml>
