{
  "type": "FeatureCollection",
  "features": [
    {
      "type": "Feature",
      "properties": {
        "id": "huaca-san-borja",
        "name": "Huaca San Borja",
        "district": "San Borja"
      },
      "geometry": {
        "type": "Point",
        "coordinates": [
          -77.0002329,
          -12.0841313
        ]
      }
    },
    {
      "type": "Feature",
      "properties": {
        "id": "lima-centro-de-convenciones",
        "name": "Centro de Convenciones de Lima",
        "district": "San Borja"
      },
      "geometry": {
        "type": "Point",
        "coordinates": [
          -77.000684,
          -12.0863298
        ]
      }
    },
    {
      "type": "Feature",
      "properties": {
        "id": "ministerio-de-cultura-museo-de-la-nacion",
        "name": "Museo de la Nación",
        "district": "San Borja"
      },
      "geometry": {
        "type": "Point",
        "coordinates": [
          -77.0018865,
          -12.086744
        ]
      }
    },
    {
      "type": "Feature",
      "properties": {
        "id": "gran-teatro-nacional",
        "name": "Teatro Nacional del Perú",
        "district": "San Borja"
      },
      "geometry": {
        "type": "Point",
        "coordinates": [
          -77.0031643,
          -12.0866273
        ]
      }
    },
    {
      "type": "Feature",
      "properties": {
        "id": "centro-de-convenciones-estacion-la-cultura",
        "name": "Estación \"La Cultura\"",
        "district": "San Borja"
      },
      "geometry": {
        "type": "Point",
        "coordinates": [
          -77.0037399,
          -12.0865598
        ]
      }
    },
    {
      "type": "Feature",
      "properties": {
        "id": "biblioteca-nacional-del-peru",
        "name": "Biblioteca Nacional",
        "district": "San Borja"
      },
      "geometry": {
        "type": "Point",
        "coordinates": [
          -77.005129,
          -12.0877743
        ]
      }
    },
    {
      "type": "Feature",
      "properties": {
        "from": "huaca-san-borja",
        "to": "lima-centro-de-convenciones",
        "road_distance_m": 392.6,
        "source_retrieved_at": "2026-09-03T00:26:22.093162+00:00"
      },
      "geometry": {
        "coordinates": [
          [
            -77.000283,
            -12.083962
          ],
          [
            -77.000513,
            -12.084027
          ],
          [
            -77.000523,
            -12.084048
          ],
          [
            -77.000528,
            -12.084073
          ],
          [
            -77.00051,
            -12.08422
          ],
          [
            -77.000342,
            -12.084545
          ],
          [
            -77.000417,
            -12.084596
          ],
          [
            -77.000438,
            -12.084605
          ],
          [
            -77.000295,
            -12.084936
          ],
          [
            -77.000263,
            -12.085043
          ],
          [
            -77.000256,
            -12.085069
          ],
          [
            -77.000216,
            -12.085242
          ],
          [
            -77.00019,
            -12.085389
          ],
          [
            -77.000147,
            -12.085621
          ],
          [
            -77.000138,
            -12.085663
          ],
          [
            -77.0002,
            -12.085667
          ],
          [
            -77.000319,
            -12.085684
          ],
          [
            -77.000324,
            -12.08565
          ],
          [
            -77.000506,
            -12.085672
          ],
          [
            -77.001023,
            -12.08575
          ],
          [
            -77.001054,
            -12.085759
          ],
          [
            -77.001063,
            -12.085765
          ],
          [
            -77.001071,
            -12.085774
          ],
          [
            -77.001082,
            -12.085785
          ],
          [
            -77.001145,
            -12.085791
          ],
          [
            -77.001066,
            -12.08628
          ],
          [
            -77.001066,
            -12.08628
          ]
        ],
        "type": "LineString"
      }
    },
    {
      "type": "Feature",
      "properties": {
        "from": "lima-centro-de-convenciones",
        "to": "ministerio-de-cultura-museo-de-la-nacion",
        "road_distance_m": 486.7,
        "source_retrieved_at": "2026-09-03T00:26:22.093162+00:00"
      },
      "geometry": {
        "coordinates": [
          [
            -77.001066,
            -12.08628
          ],
          [
            -77.001145,
            -12.085791
          ],
          [
            -77.001204,
            -12.085803
          ],
          [
            -77.001342,
            -12.085824
          ],
          [
            -77.001334,
            -12.085871
          ],
          [
            -77.001331,
            -12.085917
          ],
          [
            -77.001342,
            -12.085938
          ],
          [
            -77.001385,
            -12.085953
          ],
          [
            -77.001399,
            -12.085951
          ],
          [
            -77.001537,
            -12.085962
          ],
          [
            -77.001584,
            -12.085968
          ],
          [
            -77.001685,
            -12.085979
          ],
          [
            -77.001837,
            -12.086001
          ],
          [
            -77.001815,
            -12.086137
          ],
          [
            -77.002431,
            -12.086228
          ],
          [
            -77.002576,
            -12.086249
          ],
          [
            -77.002723,
            -12.086272
          ],
          [
            -77.002672,
            -12.086611
          ],
          [
            -77.002658,
            -12.086707
          ],
          [
            -77.002629,
            -12.086903
          ],
          [
            -77.002598,
            -12.087128
          ],
          [
            -77.002564,
            -12.087124
          ],
          [
            -77.002384,
            -12.087102
          ],
          [
            -77.00236,
            -12.087274
          ],
          [
            -77.002285,
            -12.087264
          ],
          [
            -77.002238,
            -12.087256
          ],
          [
            -77.002264,
            -12.087072
          ],
          [
            -77.002004,
            -12.087037
          ],
          [
            -77.002016,
            -12.086953
          ],
          [
            -77.00186,
            -12.086931
          ]
        ],
        "type": "LineString"
      }
    },
    {
      "type": "Feature",
      "properties": {
        "from": "ministerio-de-cultura-museo-de-la-nacion",
        "to": "gran-teatro-nacional",
        "road_distance_m": 312.7,
        "source_retrieved_at": "2026-09-03T00:26:22.093162+00:00"
      },
      "geometry": {
        "coordinates": [
          [
            -77.00186,
            -12.086931
          ],
          [
            -77.002016,
            -12.086953
          ],
          [
            -77.002004,
            -12.087037
          ],
          [
            -77.002264,
            -12.087072
          ],
          [
            -77.002238,
            -12.087256
          ],
          [
            -77.002285,
            -12.087264
          ],
          [
            -77.00236,
            -12.087274
          ],
          [
            -77.002384,
            -12.087102
          ],
          [
            -77.002564,
            -12.087124
          ],
          [
            -77.002598,
            -12.087128
          ],
          [
            -77.002692,
            -12.087144
          ],
          [
            -77.002698,
            -12.087098
          ],
          [
            -77.003359,
            -12.087351
          ],
          [
            -77.003473,
            -12.08736
          ],
          [
            -77.003479,
            -12.087323
          ],
          [
            -77.00357,
            -12.086682
          ]
        ],
        "type": "LineString"
      }
    },
    {
      "type": "Feature",
      "properties": {
        "from": "gran-teatro-nacional",
        "to": "centro-de-convenciones-estacion-la-cultura",
        "road_distance_m": 126.6,
        "source_retrieved_at": "2026-09-03T00:26:22.093162+00:00"
      },
      "geometry": {
        "coordinates": [
          [
            -77.00357,
            -12.086682
          ],
          [
            -77.003613,
            -12.086379
          ],
          [
            -77.003671,
            -12.086385
          ],
          [
            -77.003692,
            -12.086387
          ],
          [
            -77.003724,
            -12.086391
          ],
          [
            -77.003747,
            -12.086393
          ],
          [
            -77.003772,
            -12.086396
          ],
          [
            -77.003805,
            -12.086399
          ],
          [
            -77.003821,
            -12.086401
          ],
          [
            -77.003815,
            -12.086443
          ],
          [
            -77.00381,
            -12.086478
          ],
          [
            -77.003793,
            -12.086476
          ],
          [
            -77.003759,
            -12.086472
          ],
          [
            -77.003741,
            -12.086602
          ],
          [
            -77.003708,
            -12.086598
          ],
          [
            -77.003733,
            -12.08642
          ],
          [
            -77.003756,
            -12.086423
          ],
          [
            -77.003737,
            -12.08656
          ]
        ],
        "type": "LineString"
      }
    },
    {
      "type": "Feature",
      "properties": {
        "from": "centro-de-convenciones-estacion-la-cultura",
        "to": "biblioteca-nacional-del-peru",
        "road_distance_m": 305.7,
        "source_retrieved_at": "2026-09-03T00:26:22.093162+00:00"
      },
      "geometry": {
        "coordinates": [
          [
            -77.003737,
            -12.08656
          ],
          [
            -77.003756,
            -12.086423
          ],
          [
            -77.003733,
            -12.08642
          ],
          [
            -77.003708,
            -12.086598
          ],
          [
            -77.003741,
            -12.086602
          ],
          [
            -77.003736,
            -12.086639
          ],
          [
            -77.00373,
            -12.086683
          ],
          [
            -77.003694,
            -12.086937
          ],
          [
            -77.003672,
            -12.087091
          ],
          [
            -77.003667,
            -12.087133
          ],
          [
            -77.003697,
            -12.087137
          ],
          [
            -77.003723,
            -12.087141
          ],
          [
            -77.003718,
            -12.087177
          ],
          [
            -77.003695,
            -12.087342
          ],
          [
            -77.003756,
            -12.087349
          ],
          [
            -77.003821,
            -12.087356
          ],
          [
            -77.003904,
            -12.087367
          ],
          [
            -77.003893,
            -12.087436
          ],
          [
            -77.003853,
            -12.087482
          ],
          [
            -77.004032,
            -12.087508
          ],
          [
            -77.004225,
            -12.087547
          ],
          [
            -77.00437,
            -12.087603
          ],
          [
            -77.004489,
            -12.087671
          ],
          [
            -77.004871,
            -12.087896
          ],
          [
            -77.004931,
            -12.08793
          ],
          [
            -77.005011,
            -12.087975
          ]
        ],
        "type": "LineString"
      }
    }
  ]
}
