<?xml version="1.0" encoding="UTF-8"?><kml xmlns="http://www.opengis.net/kml/2.2"><Document><name>San Borja</name><Style id="walking-route"><LineStyle><color>ff326bb8</color><width>5</width></LineStyle></Style><Placemark><name>Conjunto Residencial Las Torres de Limatambo</name><Point><coordinates>-77.0045741,-12.109026,0</coordinates></Point></Placemark><Placemark><name>Coliseo Eduardo Dibós</name><Point><coordinates>-77.0011657,-12.1109128,0</coordinates></Point></Placemark><Placemark><name>torres-de-limatambo-supermanzana → coliseo-eduardo-dibos</name><styleUrl>#walking-route</styleUrl><ExtendedData><Data name="road_distance_m"><value>742.2</value></Data></ExtendedData><LineString><tessellate>1</tessellate><altitudeMode>clampToGround</altitudeMode><coordinates>-77.004584,-12.109038,0 -77.004832,-12.108849,0 -77.00481,-12.108819,0 -77.00461,-12.108967,0 -77.004473,-12.109073,0 -77.004036,-12.109426,0 -77.00407,-12.109468,0 -77.0037,-12.109768,0 -77.003696,-12.109782,0 -77.003694,-12.109796,0 -77.003651,-12.10983,0 -77.003612,-12.109861,0 -77.003597,-12.109846,0 -77.003357,-12.110037,0 -77.003339,-12.110051,0 -77.003316,-12.110069,0 -77.003098,-12.110242,0 -77.003079,-12.110257,0 -77.003061,-12.110272,0 -77.002819,-12.110464,0 -77.002772,-12.110494,0 -77.002735,-12.110519,0 -77.00255,-12.110671,0 -77.00254,-12.110685,0 -77.002485,-12.111193,0 -77.002468,-12.111365,0 -77.002444,-12.111388,0 -77.00239,-12.111394,0 -77.002385,-12.111422,0 -77.002378,-12.111481,0 -77.002353,-12.111727,0 -77.002047,-12.111704,0 -77.001644,-12.11168,0 -77.001591,-12.111676,0 -77.001528,-12.111671,0 -77.001452,-12.111666,0 -77.001179,-12.111607,0 -77.001002,-12.111576,0 -77.000931,-12.11155,0 -77.000851,-12.111511,0 -77.000751,-12.111455,0 -77.000739,-12.111443,0 -77.000738,-12.111372,0 -77.00098,-12.111129,0 -77.001008,-12.111101,0 -77.001052,-12.111131,0 -77.001138,-12.111154,0 -77.001183,-12.111151,0</coordinates></LineString></Placemark></Document></kml>
