<?xml version="1.0" encoding="UTF-8"?><kml xmlns="http://www.opengis.net/kml/2.2"><Document><name>San Isidro</name><Placemark><name>Casa Museo Marina Núñez del Prado</name><Point><coordinates>-77.03397,-12.100988,0</coordinates></Point></Placemark><Placemark><name>Municipalidad de San Isidro</name><Point><coordinates>-77.0273922,-12.0977364,0</coordinates></Point></Placemark><Placemark><name>Torre Begonias</name><Point><coordinates>-77.0239594,-12.092104,0</coordinates></Point></Placemark><Placemark><name>150</name><Point><coordinates>-77.0245028,-12.0973204,0</coordinates></Point></Placemark><Placemark><name>Viettel Perú</name><Point><coordinates>-77.0193865,-12.0978883,0</coordinates></Point></Placemark></Document></kml>
