{
  "type": "FeatureCollection",
  "features": [
    {
      "type": "Feature",
      "properties": {
        "id": "huaca-huallamarca",
        "name": "Huaca Huallamarca",
        "district": "San Isidro"
      },
      "geometry": {
        "type": "Point",
        "coordinates": [
          -77.040492,
          -12.0974038
        ]
      }
    },
    {
      "type": "Feature",
      "properties": {
        "id": "calle-choquehuanca-basadre-residencial",
        "name": "Calle José Choquehuanca",
        "district": "San Isidro"
      },
      "geometry": {
        "type": "Point",
        "coordinates": [
          -77.0446337,
          -12.097723
        ]
      }
    },
    {
      "type": "Feature",
      "properties": {
        "id": "country-club-lima-hotel",
        "name": "Hotel Country Club",
        "district": "San Isidro"
      },
      "geometry": {
        "type": "Point",
        "coordinates": [
          -77.0490204,
          -12.0979669
        ]
      }
    },
    {
      "type": "Feature",
      "properties": {
        "from": "huaca-huallamarca",
        "to": "calle-choquehuanca-basadre-residencial",
        "road_distance_m": 453.3,
        "source_retrieved_at": "2026-09-03T00:26:22.093162+00:00"
      },
      "geometry": {
        "coordinates": [
          [
            -77.040947,
            -12.097182
          ],
          [
            -77.041265,
            -12.097804
          ],
          [
            -77.041362,
            -12.097777
          ],
          [
            -77.041395,
            -12.097842
          ],
          [
            -77.041456,
            -12.097829
          ],
          [
            -77.042187,
            -12.097702
          ],
          [
            -77.043142,
            -12.097536
          ],
          [
            -77.043248,
            -12.097527
          ],
          [
            -77.043299,
            -12.097533
          ],
          [
            -77.043357,
            -12.097541
          ],
          [
            -77.043421,
            -12.09755
          ],
          [
            -77.044417,
            -12.097692
          ],
          [
            -77.04449,
            -12.097702
          ],
          [
            -77.044567,
            -12.097713
          ],
          [
            -77.044634,
            -12.097723
          ]
        ],
        "type": "LineString"
      }
    },
    {
      "type": "Feature",
      "properties": {
        "from": "calle-choquehuanca-basadre-residencial",
        "to": "country-club-lima-hotel",
        "road_distance_m": 491.1,
        "source_retrieved_at": "2026-09-03T00:26:22.093162+00:00"
      },
      "geometry": {
        "coordinates": [
          [
            -77.044634,
            -12.097723
          ],
          [
            -77.04555,
            -12.097855
          ],
          [
            -77.045624,
            -12.097862
          ],
          [
            -77.045711,
            -12.097877
          ],
          [
            -77.046677,
            -12.098023
          ],
          [
            -77.046779,
            -12.098036
          ],
          [
            -77.046887,
            -12.098048
          ],
          [
            -77.046944,
            -12.098055
          ],
          [
            -77.047882,
            -12.098172
          ],
          [
            -77.047931,
            -12.09818
          ],
          [
            -77.047966,
            -12.098185
          ],
          [
            -77.04808,
            -12.098204
          ],
          [
            -77.048099,
            -12.098181
          ],
          [
            -77.048121,
            -12.098172
          ],
          [
            -77.048148,
            -12.098173
          ],
          [
            -77.04817,
            -12.098185
          ],
          [
            -77.048187,
            -12.09821
          ],
          [
            -77.048289,
            -12.098209
          ],
          [
            -77.04838,
            -12.098162
          ],
          [
            -77.04843,
            -12.098224
          ],
          [
            -77.04855,
            -12.098329
          ],
          [
            -77.048593,
            -12.098259
          ],
          [
            -77.048675,
            -12.098178
          ],
          [
            -77.048711,
            -12.098162
          ],
          [
            -77.04875,
            -12.098159
          ],
          [
            -77.048776,
            -12.097994
          ],
          [
            -77.048776,
            -12.097994
          ]
        ],
        "type": "LineString"
      }
    }
  ]
}
