<?xml version="1.0" encoding="UTF-8"?><kml xmlns="http://www.opengis.net/kml/2.2"><Document><name>San Borja</name><Style id="walking-route"><LineStyle><color>ff326bb8</color><width>5</width></LineStyle></Style><Placemark><name>Huaca San Borja</name><Point><coordinates>-77.0002329,-12.0841313,0</coordinates></Point></Placemark><Placemark><name>Centro de Convenciones de Lima</name><Point><coordinates>-77.000684,-12.0863298,0</coordinates></Point></Placemark><Placemark><name>Museo de la Nación</name><Point><coordinates>-77.0018865,-12.086744,0</coordinates></Point></Placemark><Placemark><name>Teatro Nacional del Perú</name><Point><coordinates>-77.0031643,-12.0866273,0</coordinates></Point></Placemark><Placemark><name>Estación &quot;La Cultura&quot;</name><Point><coordinates>-77.0037399,-12.0865598,0</coordinates></Point></Placemark><Placemark><name>Biblioteca Nacional</name><Point><coordinates>-77.005129,-12.0877743,0</coordinates></Point></Placemark><Placemark><name>huaca-san-borja → lima-centro-de-convenciones</name><styleUrl>#walking-route</styleUrl><ExtendedData><Data name="road_distance_m"><value>392.6</value></Data></ExtendedData><LineString><tessellate>1</tessellate><altitudeMode>clampToGround</altitudeMode><coordinates>-77.000283,-12.083962,0 -77.000513,-12.084027,0 -77.000523,-12.084048,0 -77.000528,-12.084073,0 -77.00051,-12.08422,0 -77.000342,-12.084545,0 -77.000417,-12.084596,0 -77.000438,-12.084605,0 -77.000295,-12.084936,0 -77.000263,-12.085043,0 -77.000256,-12.085069,0 -77.000216,-12.085242,0 -77.00019,-12.085389,0 -77.000147,-12.085621,0 -77.000138,-12.085663,0 -77.0002,-12.085667,0 -77.000319,-12.085684,0 -77.000324,-12.08565,0 -77.000506,-12.085672,0 -77.001023,-12.08575,0 -77.001054,-12.085759,0 -77.001063,-12.085765,0 -77.001071,-12.085774,0 -77.001082,-12.085785,0 -77.001145,-12.085791,0 -77.001066,-12.08628,0 -77.001066,-12.08628,0</coordinates></LineString></Placemark><Placemark><name>lima-centro-de-convenciones → ministerio-de-cultura-museo-de-la-nacion</name><styleUrl>#walking-route</styleUrl><ExtendedData><Data name="road_distance_m"><value>486.7</value></Data></ExtendedData><LineString><tessellate>1</tessellate><altitudeMode>clampToGround</altitudeMode><coordinates>-77.001066,-12.08628,0 -77.001145,-12.085791,0 -77.001204,-12.085803,0 -77.001342,-12.085824,0 -77.001334,-12.085871,0 -77.001331,-12.085917,0 -77.001342,-12.085938,0 -77.001385,-12.085953,0 -77.001399,-12.085951,0 -77.001537,-12.085962,0 -77.001584,-12.085968,0 -77.001685,-12.085979,0 -77.001837,-12.086001,0 -77.001815,-12.086137,0 -77.002431,-12.086228,0 -77.002576,-12.086249,0 -77.002723,-12.086272,0 -77.002672,-12.086611,0 -77.002658,-12.086707,0 -77.002629,-12.086903,0 -77.002598,-12.087128,0 -77.002564,-12.087124,0 -77.002384,-12.087102,0 -77.00236,-12.087274,0 -77.002285,-12.087264,0 -77.002238,-12.087256,0 -77.002264,-12.087072,0 -77.002004,-12.087037,0 -77.002016,-12.086953,0 -77.00186,-12.086931,0</coordinates></LineString></Placemark><Placemark><name>ministerio-de-cultura-museo-de-la-nacion → gran-teatro-nacional</name><styleUrl>#walking-route</styleUrl><ExtendedData><Data name="road_distance_m"><value>312.7</value></Data></ExtendedData><LineString><tessellate>1</tessellate><altitudeMode>clampToGround</altitudeMode><coordinates>-77.00186,-12.086931,0 -77.002016,-12.086953,0 -77.002004,-12.087037,0 -77.002264,-12.087072,0 -77.002238,-12.087256,0 -77.002285,-12.087264,0 -77.00236,-12.087274,0 -77.002384,-12.087102,0 -77.002564,-12.087124,0 -77.002598,-12.087128,0 -77.002692,-12.087144,0 -77.002698,-12.087098,0 -77.003359,-12.087351,0 -77.003473,-12.08736,0 -77.003479,-12.087323,0 -77.00357,-12.086682,0</coordinates></LineString></Placemark><Placemark><name>gran-teatro-nacional → centro-de-convenciones-estacion-la-cultura</name><styleUrl>#walking-route</styleUrl><ExtendedData><Data name="road_distance_m"><value>126.6</value></Data></ExtendedData><LineString><tessellate>1</tessellate><altitudeMode>clampToGround</altitudeMode><coordinates>-77.00357,-12.086682,0 -77.003613,-12.086379,0 -77.003671,-12.086385,0 -77.003692,-12.086387,0 -77.003724,-12.086391,0 -77.003747,-12.086393,0 -77.003772,-12.086396,0 -77.003805,-12.086399,0 -77.003821,-12.086401,0 -77.003815,-12.086443,0 -77.00381,-12.086478,0 -77.003793,-12.086476,0 -77.003759,-12.086472,0 -77.003741,-12.086602,0 -77.003708,-12.086598,0 -77.003733,-12.08642,0 -77.003756,-12.086423,0 -77.003737,-12.08656,0</coordinates></LineString></Placemark><Placemark><name>centro-de-convenciones-estacion-la-cultura → biblioteca-nacional-del-peru</name><styleUrl>#walking-route</styleUrl><ExtendedData><Data name="road_distance_m"><value>305.7</value></Data></ExtendedData><LineString><tessellate>1</tessellate><altitudeMode>clampToGround</altitudeMode><coordinates>-77.003737,-12.08656,0 -77.003756,-12.086423,0 -77.003733,-12.08642,0 -77.003708,-12.086598,0 -77.003741,-12.086602,0 -77.003736,-12.086639,0 -77.00373,-12.086683,0 -77.003694,-12.086937,0 -77.003672,-12.087091,0 -77.003667,-12.087133,0 -77.003697,-12.087137,0 -77.003723,-12.087141,0 -77.003718,-12.087177,0 -77.003695,-12.087342,0 -77.003756,-12.087349,0 -77.003821,-12.087356,0 -77.003904,-12.087367,0 -77.003893,-12.087436,0 -77.003853,-12.087482,0 -77.004032,-12.087508,0 -77.004225,-12.087547,0 -77.00437,-12.087603,0 -77.004489,-12.087671,0 -77.004871,-12.087896,0 -77.004931,-12.08793,0 -77.005011,-12.087975,0</coordinates></LineString></Placemark></Document></kml>
